DBN,Location_Code,School_Name,latitude,longitude,formatted_address,ZIP Code,Neighborhood,Borough_Code_Derived,Borough_Derived,District_Derived
02M546,M546,ACADEMY FOR SOFTWARE ENGINEERING,40.735361,-73.987064,40 IRVING PLACE,10003,Union Square - Lower East Side,M,Manhattan,2
07X625,X625,BRONX LEGACY HIGH SCHOOL,40.860443,-73.860729,925 ASTOR AVENUE,10469,Northeast Bronx,X,Bronx,7
72X508,X508,BRONXDALE HIGH SCHOOL,40.860443,-73.860729,925 ASTOR AVENUE,10469,Northeast Bronx,X,Bronx,72
08X537,X537,BRONX ARENA HIGH SCHOOL,40.820486,-73.881187,1440 STORY AVENUE,10473,Pelham - Throgs Neck,X,Bronx,8
30Q417,Q417,GOTHAM TECH HIGH SCHOOL,40.721448,-73.953328,50 BEDFORD AVENUE,11222,Greenpoint,Q,Queens,30
76K610,K610,A-TECH HIGH SCHOOL,40.721448,-73.953328,50 BEDFORD AVENUE,11222,Greenpoint,K,Brooklyn,76
71M047,M047,47 THE AMERICAN SIGN LANGUAGE AND ENGLISH SECONDAR,40.738374,-73.981329,223 EAST 23 STREET,10010,Gramercy Park - Murray Hill,M,Manhattan,71
71M135,M135,THE URBAN ASSEMBLY SCHOOL FOR EMERGENCY MANAGEMENT,40.711441,-74.000851,411 PEARL STREET,10038,Lower Manhattam,M,Manhattan,71
71M139,M139,STEPHEN T. MATHER BUILDING ARTS & CRAFTSMANSHIP HI,40.763655,-73.990318,439 WEST 49 STREET,10019,Chelsea - Clinton,M,Manhattan,71
71M157,M157,THE URBAN ASSEMBLY SCHOOL FOR GLOBAL COMMERCE,40.807019,-73.938714,2005 MADISON AVENUE,10035,East Harlem,M,Manhattan,71
71M211,M211,INWOOD EARLY COLLEGE FOR HEALTH AND INFORMATION TE,40.865556,-73.925464,650 ACADEMY STREET,10034,Washington Heights - Inwood,M,Manhattan,71
71M280,M280,MANHATTAN EARLY COLLEGE SCHOOL FOR ADVERTISING,40.711441,-74.000851,411 PEARL STREET,10038,Lower Manhattam,M,Manhattan,71
71M282,M282,URBAN ASSEMBLY MAKER ACADEMY,40.711441,-74.000851,411 PEARL STREET,10038,Lower Manhattam,M,Manhattan,71
71M285,M285,HARLEM RENAISSANCE HIGH SCHOOL,40.807692,-73.939974,22 EAST 128 STREET,10035,East Harlem,M,Manhattan,71
71M288,M288,FOOD AND FINANCE HIGH SCHOOL,40.765474,-73.9927,525 WEST 50 STREET,10019,Chelsea - Clinton,M,Manhattan,71
71M292,M292,ORCHARD COLLEGIATE ACADEMY,40.713362,-73.986051,220 HENRY STREET,10002,Union Square - Lower East Side,M,Manhattan,71
71M296,M296,HIGH SCHOOL OF HOSPITALITY MANAGEMENT,40.765474,-73.9927,525 WEST 50 STREET,10019,Chelsea - Clinton,M,Manhattan,71
71M298,M298,PACE HIGH SCHOOL,40.716231,-73.993607,100 HESTER STREET,10002,Union Square - Lower East Side,M,Manhattan,71
71M479,M479,BEACON HIGH SCHOOL,40.716231,-73.993607,100 HESTER STREET,10002,Union Square - Lower East Side,M,Manhattan,71
71M299,M299,THE MAXINE GREENE HS FOR IMAGINATIVE INQUIRY,40.774891,-73.985608,122 AMSTERDAM AVENUE,10023,Upper West Side,M,Manhattan,71
71M300,M300,URBAN ASSEMBLY SCHOOL OF DESIGN AND CONSTRUCTION,40.765474,-73.9927,525 WEST 50 STREET,10019,Chelsea - Clinton,M,Manhattan,71
71M303,M303,FACING HISTORY SCHOOL  THE,40.765474,-73.9927,525 WEST 50 STREET,10019,Chelsea - Clinton,M,Manhattan,71
71M304,M304,MOTT HALL HIGH SCHOOL,40.817228,-73.947151,6 EDGECOMBE AVENUE,10030,Central Harlem - Morningside Heights,M,Manhattan,71
71M305,M305,URBAN ASSEMBLY ACADEMY OF GOVERNMENT AND LAW  THE,40.717329,-73.989329,350 GRAND STREET,10002,Union Square - Lower East Side,M,Manhattan,71
71M307,M307,URBAN ASSEMBLY SCHOOL FOR MEDIA STUDIES  THE,40.774891,-73.985608,122 AMSTERDAM AVENUE,10023,Upper West Side,M,Manhattan,71
71M308,M308,LOWER MANHATTAN ARTS ACADEMY,40.717329,-73.989329,350 GRAND STREET,10002,Union Square - Lower East Side,M,Manhattan,71
71M316,M316,URBAN ASSEMBLY SCHOOL OF BUSINESS FOR YOUNG WOMEN,40.705688,-74.013303,26 BROADWAY,10004,Lower Manhattan,M,Manhattan,71
71M369,M369,URBAN ASSEMBLY SCHOOL FOR THE PERFORMING ARTS,40.815747,-73.95552,509 WEST 129 STREET,10027,Central Harlem - Morningside Heights,M,Manhattan,71
71M374,M374,GRAMERCY ARTS HIGH SCHOOL,40.735361,-73.987064,40 IRVING PLACE,10003,Union Square - Lower East Side,M,Manhattan,71
71M376,M376,NYC ISCHOOL,40.72463,-74.005058,131 AVENUE OF THE AMERICAS,10013,Greenwich Village - SoHo,M,Manhattan,71
71M392,M392,MANHATTAN BUSINESS ACADEMY,40.743407,-74.00254,351 WEST 18 STREET,10011,Chelsea - Clinton,M,Manhattan,71
71M393,M393,BUSINESS OF SPORTS SCHOOL,40.763655,-73.990318,439 WEST 49 STREET,10019,Chelsea - Clinton,M,Manhattan,71
71M394,M394,EMMA LAZARUS HIGH SCHOOL,40.716231,-73.993607,100 HESTER STREET,10002,Union Square - Lower East Side,M,Manhattan,71
71M399,M399,THE HIGH SCHOOL FOR LANGUAGE AND DIPLOMACY,40.735361,-73.987064,40 IRVING PLACE,10003,Union Square - Lower East Side,M,Manhattan,71
71M400,M400,HIGH SCHOOL FOR ENVIRONMENTAL STUDIES,40.767848,-73.98861,444 WEST 56 STREET,10019,Chelsea - Clinton,M,Manhattan,71
71M402,M402,THE URBAN ASSEMBLY SCHOOL FOR GREEN CAREERS,40.786134,-73.974483,145 WEST 84 STREET,10024,Upper West Side,M,Manhattan,71
71M403,M403,THE GLOBAL LEARNING COLLABORATIVE,40.786134,-73.974483,145 WEST 84 STREET,10024,Upper West Side,M,Manhattan,71
71M404,M404,INNOVATION DIPLOMA PLUS,40.786134,-73.974483,145 WEST 84 STREET,10024,Upper West Side,M,Manhattan,71
71M411,M411,BARUCH COLLEGE CAMPUS HIGH SCHOOL,40.741888,-73.985723,55 EAST 25 STREET,10010,Gramercy Park - Murray Hill,M,Manhattan,71
71M414,M414,N.Y.C. MUSEUM SCHOOL,40.742512,-74.002222,333 WEST 17 STREET,10011,Chelsea - Clinton,M,Manhattan,71
71M416,M416,ELEANOR ROOSEVELT HIGH SCHOOL,40.770288,-73.953276,411 EAST 76 STREET,10021,Upper East Side,M,Manhattan,71
71M417,M417,FRANK MCCOURT HIGH SCHOOL,40.786134,-73.974483,145 WEST 84 STREET,10024,Upper West Side,M,Manhattan,71
71M419,M419,LANDMARK HIGH SCHOOL,40.743407,-74.00254,351 WEST 18 STREET,10011,Chelsea - Clinton,M,Manhattan,71
71M449,M449,VANGUARD HIGH SCHOOL,40.743407,-74.00254,351 WEST 18 STREET,10011,Chelsea - Clinton,M,Manhattan,71
76K572,K572,LEADERS HIGH SCHOOL,40.743407,-74.00254,351 WEST 18 STREET,10011,Chelsea - Clinton,K,Brooklyn,76
71M420,M420,HIGH SCHOOL FOR HEALTH PROFESSIONS AND HUMAN SERVI,40.732665,-73.98259,345 EAST 15 STREET,10003,Union Square - Lower East Side,M,Manhattan,71
71M423,M423,HIGH SCHOOL FOR EXCELLENCE AND INNOVATION,40.865556,-73.925464,650 ACADEMY STREET,10034,Washington Heights - Inwood,M,Manhattan,71
71M425,M425,LEADERSHIP AND PUBLIC SERVICE HIGH SCHOOL,40.708971,-74.012465,90 TRINITY PLACE,10006,Lower Manhattan,M,Manhattan,71
71M427,M427,MANHATTAN ACADEMY FOR ARTS & LANGUAGE,40.74651,-73.98107,111 EAST 33 STREET,10016,Gramercy Park - Murray Hill,M,Manhattan,71
71M432,M432,MURRAY HILL ACADEMY,40.74651,-73.98107,111 EAST 33 STREET,10016,Gramercy Park - Murray Hill,M,Manhattan,71
71M435,M435,MANHATTAN CENTER FOR SCIENCE AND MATHEMATICS,40.794184,-73.932868,260 PLEASANT AVENUE,10029,East Harlem,M,Manhattan,71
71M437,M437,HUDSON HIGH SCHOOL OF LEARNING TECHNOLOGIES,40.743407,-74.00254,351 WEST 18 STREET,10011,Chelsea - Clinton,M,Manhattan,71
71M448,M448,UNIVERSITY NEIGHBORHOOD HIGH SCHOOL,40.712269,-73.984128,200 MONROE STREET,10002,Union Square - Lower East Side,M,Manhattan,71
71M459,M459,MANHATTAN INTERNATIONAL HIGH SCHOOL,40.765638,-73.959777,327 EAST 67 STREET,10065,Upper East Side,M,Manhattan,71
71M459,M459,MANHATTAN INTERNATIONAL HIGH SCHOOL,40.765638,-73.959777,330 EAST 67 STREET,10065,Upper East Side,M,Manhattan,71
71M459,M459,MANHATTAN INTERNATIONAL HIGH SCHOOL,40.765638,-73.959777,336 EAST 67 STREET,10065,Upper East Side,M,Manhattan,71
71M459,M459,MANHATTAN INTERNATIONAL HIGH SCHOOL,40.765638,-73.959777,339 EAST 67 STREET,10065,Upper East Side,M,Manhattan,71
71M459,M459,MANHATTAN INTERNATIONAL HIGH SCHOOL,40.765638,-73.959777,341 EAST 67 STREET,10065,Upper East Side,M,Manhattan,71
71M459,M459,MANHATTAN INTERNATIONAL HIGH SCHOOL,40.765638,-73.959777,349 EAST 67 STREET,10065,Upper East Side,M,Manhattan,71
71M462,M462,THE COLLEGE ACADEMY,40.856532,-73.92606,549 AUDUBON AVENUE,10040,Washington Heights - Inwood,M,Manhattan,71
71M463,M463,HIGH SCHOOL FOR MEDIA AND COMMUNICATIONS,40.856532,-73.92606,549 AUDUBON AVENUE,10040,Washington Heights - Inwood,M,Manhattan,71
71M467,M467,HIGH SCHOOL FOR LAW AND PUBLIC SERVICE,40.856532,-73.92606,549 AUDUBON AVENUE,10040,Washington Heights - Inwood,M,Manhattan,71
71M468,M468,HIGH SCHOOL FOR HEALTH CAREERS AND SCIENCES,40.856532,-73.92606,549 AUDUBON AVENUE,10040,Washington Heights - Inwood,M,Manhattan,71
71M475,M475,STUYVESANT HIGH SCHOOL,40.718025,-74.013921,345 CHAMBERS STREET,10282,Lower Manhattan,M,Manhattan,71
71M489,M489,HIGH SCHOOL OF ECONOMICS AND FINANCE,40.70927,-74.012328,100 TRINITY PLACE,10006,Lower Manhattan,M,Manhattan,71
71M492,M492,HIGH SCHOOL FOR LAW  ADVOCACY AND COMMUNITY JUSTIC,40.774891,-73.985608,122 AMSTERDAM AVENUE,10023,Upper West Side,M,Manhattan,71
71M494,M494,HIGH SCHOOL OF ARTS AND TECHNOLOGY,40.774891,-73.985608,122 AMSTERDAM AVENUE,10023,Upper West Side,M,Manhattan,71
71M495,M495,PARK EAST HIGH SCHOOL,40.790191,-73.944092,230 EAST 105 STREET,10029,East Harlem,M,Manhattan,71
71M505,M505,EDWARD A. REYNOLDS WEST SIDE HIGH SCHOOL,40.797136,-73.966779,140 WEST 102 STREET,10025,Upper West Side,M,Manhattan,71
71M507,M507,URBAN ASSEMBLY GATEWAY SCHOOL FOR TECHNOLOGY,40.763655,-73.990318,439 WEST 49 STREET,10019,Chelsea - Clinton,M,Manhattan,71
71M515,M515,LOWER EAST SIDE PREPARATORY HIGH SCHOOL,40.72004,-73.986038,145 STANTON STREET,10002,Union Square - Lower East Side,M,Manhattan,71
71M519,M519,TALENT UNLIMITED HIGH SCHOOL,40.765638,-73.959777,317 EAST 67 STREET,10065,Upper East Side,M,Manhattan,71
71M519,M519,TALENT UNLIMITED HIGH SCHOOL,40.765638,-73.959777,318 EAST 67 STREET,10065,Upper East Side,M,Manhattan,71
71M519,M519,TALENT UNLIMITED HIGH SCHOOL,40.765638,-73.959777,319 EAST 67 STREET,10065,Upper East Side,M,Manhattan,71
71M519,M519,TALENT UNLIMITED HIGH SCHOOL,40.765638,-73.959777,326 EAST 67 STREET,10065,Upper East Side,M,Manhattan,71
71M519,M519,TALENT UNLIMITED HIGH SCHOOL,40.765638,-73.959777,328 EAST 67 STREET,10065,Upper East Side,M,Manhattan,71
71M519,M519,TALENT UNLIMITED HIGH SCHOOL,40.765638,-73.959777,329 EAST 67 STREET,10065,Upper East Side,M,Manhattan,71
71M519,M519,TALENT UNLIMITED HIGH SCHOOL,40.765638,-73.959777,331 EAST 67 STREET,10065,Upper East Side,M,Manhattan,71
71M519,M519,TALENT UNLIMITED HIGH SCHOOL,40.765638,-73.959777,332 EAST 67 STREET,10065,Upper East Side,M,Manhattan,71
71M519,M519,TALENT UNLIMITED HIGH SCHOOL,40.765638,-73.959777,333 EAST 67 STREET,10065,Upper East Side,M,Manhattan,71
71M519,M519,TALENT UNLIMITED HIGH SCHOOL,40.765638,-73.959777,334 EAST 67 STREET,10065,Upper East Side,M,Manhattan,71
71M519,M519,TALENT UNLIMITED HIGH SCHOOL,40.765638,-73.959777,337 EAST 67 STREET,10065,Upper East Side,M,Manhattan,71
71M519,M519,TALENT UNLIMITED HIGH SCHOOL,40.765638,-73.959777,338 EAST 67 STREET,10065,Upper East Side,M,Manhattan,71
71M519,M519,TALENT UNLIMITED HIGH SCHOOL,40.765638,-73.959777,340 EAST 67 STREET,10065,Upper East Side,M,Manhattan,71
71M519,M519,TALENT UNLIMITED HIGH SCHOOL,40.765638,-73.959777,342 EAST 67 STREET,10065,Upper East Side,M,Manhattan,71
71M519,M519,TALENT UNLIMITED HIGH SCHOOL,40.765638,-73.959777,343 EAST 67 STREET,10065,Upper East Side,M,Manhattan,71
71M519,M519,TALENT UNLIMITED HIGH SCHOOL,40.765638,-73.959777,344 EAST 67 STREET,10065,Upper East Side,M,Manhattan,71
71M519,M519,TALENT UNLIMITED HIGH SCHOOL,40.765638,-73.959777,345 EAST 67 STREET,10065,Upper East Side,M,Manhattan,71
71M519,M519,TALENT UNLIMITED HIGH SCHOOL,40.765638,-73.959777,348 EAST 67 STREET,10065,Upper East Side,M,Manhattan,71
71M519,M519,TALENT UNLIMITED HIGH SCHOOL,40.765638,-73.959777,351 EAST 67 STREET,10065,Upper East Side,M,Manhattan,71
71M520,M520,MURRY BERGTRAUM HIGH SCHOOL FOR BUSINESS CAREERS,40.711441,-74.000851,411 PEARL STREET,10038,Lower Manhattam,M,Manhattan,71
71M529,M529,JACQUELINE KENNEDY ONASSIS HIGH SCHOOL,40.757626,-73.98346,120 WEST 46 STREET,10036,Chelsea - Clinton,M,Manhattan,71
71M533,M533,UNION SQUARE ACADEMY FOR HEALTH SCIENCES,40.735361,-73.987064,40 IRVING PLACE,10003,Union Square - Lower East Side,M,Manhattan,71
71M534,M534,HARVEST COLLEGIATE HIGH SCHOOL,40.736416,-73.995731,34 WEST 14 STREET,10011,Chelsea - Clinton,M,Manhattan,71
71M540,M540,A. PHILIP RANDOLPH CAMPUS HIGH SCHOOL,40.8185,-73.949929,443 WEST 135 STREET,10031,Washington Heights - Inwood,M,Manhattan,71
71M542,M542,MANHATTAN BRIDGES HIGH SCHOOL,40.765474,-73.9927,525 WEST 50 STREET,10019,Chelsea - Clinton,M,Manhattan,71
71M543,M543,NEW DESIGN HIGH SCHOOL,40.717329,-73.989329,350 GRAND STREET,10002,Union Square - Lower East Side,M,Manhattan,71
71M544,M544,INDEPENDENCE HIGH SCHOOL,40.767848,-73.98861,850 10TH AVENUE,10019,Chelsea - Clinton,M,Manhattan,71
71M545,M545,HIGH SCHOOL FOR DUAL LANGUAGE AND ASIAN STUDIES,40.717329,-73.989329,350 GRAND STREET,10002,Union Square - Lower East Side,M,Manhattan,71
71M550,M550,LIBERTY HIGH SCHOOL ACADEMY FOR NEWCOMERS,40.74182,-74.000238,250 WEST 18 STREET,10011,Chelsea - Clinton,M,Manhattan,71
71M551,M551,URBAN ASSEMBLY NEW YORK HARBOR SCHOOL,40.689493,-74.018941,550 SHORT AVENUE,10004,Lower Manhattan,M,Manhattan,71
71M552,M552,GREGORIO LUPERON HIGH SCHOOL FOR SCIENCE AND MATHE,40.8381,-73.9383,501 WEST 165 STREET,10032,Washington Heights - Inwood,M,Manhattan,71
71M555,M555,CENTRAL PARK EAST HIGH SCHOOL,40.793649,-73.948488,1573 MADISON AVENUE,10029,East Harlem,M,Manhattan,71
71M565,M565,URBAN ACADEMY LABORATORY HIGH SCHOOL,40.765638,-73.959777,320 EAST 67 STREET,10065,Upper East Side,M,Manhattan,71
71M565,M565,URBAN ACADEMY LABORATORY HIGH SCHOOL,40.765638,-73.959777,321 EAST 67 STREET,10065,Upper East Side,M,Manhattan,71
71M565,M565,URBAN ACADEMY LABORATORY HIGH SCHOOL,40.765638,-73.959777,322 EAST 67 STREET,10065,Upper East Side,M,Manhattan,71
71M565,M565,URBAN ACADEMY LABORATORY HIGH SCHOOL,40.765638,-73.959777,323 EAST 67 STREET,10065,Upper East Side,M,Manhattan,71
71M565,M565,URBAN ACADEMY LABORATORY HIGH SCHOOL,40.765638,-73.959777,324 EAST 67 STREET,10065,Upper East Side,M,Manhattan,71
71M565,M565,URBAN ACADEMY LABORATORY HIGH SCHOOL,40.765638,-73.959777,325 EAST 67 STREET,10065,Upper East Side,M,Manhattan,71
71M570,M570,SATELLITE ACADEMY HIGH SCHOOL,40.666251,-73.923881,1150 EAST NEW YORK AVENUE,11212,Bedford Stuyvesant - Crown Heights,M,Manhattan,71
73K553,K553,BROOKLYN ACADEMY HIGH SCHOOL,40.666251,-73.923881,1150 EAST NEW YORK AVENUE,11212,Bedford Stuyvesant - Crown Heights,K,Brooklyn,73
76K568,K568,BROWNSVILLE ACADEMY HIGH SCHOOL,40.666251,-73.923881,1150 EAST NEW YORK AVENUE,11212,Bedford Stuyvesant - Crown Heights,K,Brooklyn,76
71M575,M575,MANHATTAN COMPREHENSIVE NIGHT AND DAY HIGH SCHOOL,40.732699,-73.984333,240 2 AVENUE,10003,Union Square - Lower East Side,M,Manhattan,71
71M580,M580,RICHARD R. GREEN HIGH SCHOOL OF TEACHING,40.705688,-74.013303,7 BEAVER STREET,10004,Lower Manhattan,M,Manhattan,71
71M586,M586,HARVEY MILK HIGH SCHOOL,40.729661,-73.992343,2-10 ASTOR PLACE,10003,Union Square - Lower East Side,M,Manhattan,71
71M600,M600,THE HIGH SCHOOL OF FASHION INDUSTRIES,40.745677,-73.996354,225 WEST 24 STREET,10011,Chelsea - Clinton,M,Manhattan,71
71M605,M605,HUMANITIES PREPARATORY ACADEMY,40.743407,-74.00254,351 WEST 18 STREET,10011,Chelsea - Clinton,M,Manhattan,71
71M615,M615,CHELSEA CAREER AND TECHNICAL EDUCATION HIGH SCHOOL,40.72463,-74.005058,131 AVENUE OF THE AMERICAS,10013,Greenwich Village - SoHo,M,Manhattan,71
71M630,M630,ART AND DESIGN HIGH SCHOOL,40.759248,-73.967204,245 EAST 56 STREET,10022,Gramercy Park - Murray Hill,M,Manhattan,71
71M650,M650,CASCADES HIGH SCHOOL,40.722415,-73.990468,198 FORSYTH STREET,10002,Union Square - Lower East Side,M,Manhattan,71
71M655,M655,THE HIGH SCHOOL FOR CLIMATE JUSTICE,40.78358769,-73.9458592,320 E 96 STREET,10128,Upper East Side,M,Manhattan,71
72X213,X213,BRONX ENGINEERING AND TECHNOLOGY ACADEMY,40.877379,-73.912686,99 TERRACE VIEW AVENUE,10463,Kingsbridge - Riverdale,X,Bronx,72
72X227,X227,BRONX COLLEGIATE ACADEMY,40.839307,-73.911366,240 EAST 172 STREET,10457,Crotona - Tremont,X,Bronx,72
73K555,K555,BROOKLYN COLLEGE ACADEMY,40.839307,-73.911366,240 EAST 172 STREET,10457,Crotona - Tremont,K,Brooklyn,73
72X237,X237,THE MARIE CURIE SCHOOL FOR MEDICINE  NURSING  AND,40.875636,-73.901565,120 WEST 231 STREET,10463,Kingsbridge - Riverdale,X,Bronx,72
72X249,X249,BRONX HEALTH SCIENCES HIGH SCHOOL,40.874035,-73.831669,750 BAYCHESTER AVENUE,10475,Northeast Bronx,X,Bronx,72
72X250,X250,EXIMIUS COLLEGE PREPARATORY ACADEMY: A COLLEGE BOA,40.833884,-73.902794,1363 FULTON AVENUE,10456,High Bridge - Morrisania,X,Bronx,72
72X251,X251,EXPLORATIONS ACADEMY H.S.,40.836245,-73.890591,1619 BOSTON ROAD,10460,Crotona - Tremont,X,Bronx,72
72X252,X252,MOTT HALL BRONX HIGH SCHOOL,40.839508,-73.901774,1595 BATHGATE AVENUE,10457,Crotona - Tremont,X,Bronx,72
72X253,X253,BRONX HIGH SCHOOL FOR WRITING AND COMMUNICATION AR,40.875172,-73.861649,800 EAST GUN HILL ROAD,10467,Fordham - Bronx Park,X,Bronx,72
72X260,X260,BRONX CENTER FOR SCIENCE AND MATHEMATICS,40.833884,-73.902794,1363 FULTON AVENUE,10456,High Bridge - Morrisania,X,Bronx,72
72X263,X263,VALIDUS PREPARATORY ACADEMY,40.839508,-73.901774,1595 BATHGATE AVENUE,10457,Crotona - Tremont,X,Bronx,72
72X264,X264,BRONX ACADEMY FOR SOFTWARE ENGINEERING (BASE),40.855392,-73.882487,2474 CROTONA AVENUE,10458,Fordham - Bronx Park,X,Bronx,72
72X265,X265,BRONX LAB SCHOOL,40.693002,-73.869305,999 JAMAICA AVENUE,11208,East New York,X,Bronx,72
73K639,K639,BROOKLYN LAB SCHOOL,40.693002,-73.869305,999 JAMAICA AVENUE,11208,East New York,K,Brooklyn,73
72X268,X268,KINGSBRIDGE INTERNATIONAL HIGH SCHOOL,40.869061,-73.897066,2780 RESERVOIR AVENUE,10468,Fordham - Bronx Park,X,Bronx,72
72X270,X270,ACADEMY FOR SCHOLARSHIP AND ENTREPRENEURSHIP: A CO,40.888242,-73.852714,921 EAST 228 STREET,10466,Northeast Bronx,X,Bronx,72
72X275,X275,HIGH SCHOOL OF COMPUTERS AND TECHNOLOGY,40.875172,-73.861649,800 EAST GUN HILL ROAD,10467,Fordham - Bronx Park,X,Bronx,72
72X282,X282,WOMEN'S ACADEMY OF EXCELLENCE,40.815043,-73.85607,456 WHITE PLAINS ROAD,10473,Pelham - Throgs Neck,X,Bronx,72
72X284,X284,BRONX SCHOOL OF LAW AND FINANCE,40.877379,-73.912686,99 TERRACE VIEW AVENUE,10463,Kingsbridge - Riverdale,X,Bronx,72
72X288,X288,COLLEGIATE INSTITUTE FOR MATH AND SCIENCE,40.860443,-73.860729,925 ASTOR AVENUE,10469,Northeast Bronx,X,Bronx,72
72X290,X290,BRONX ACADEMY OF HEALTH CAREERS,40.875172,-73.861649,800 EAST GUN HILL ROAD,10467,Fordham - Bronx Park,X,Bronx,72
72X293,X293,RENAISSANCE HIGH SCHOOL FOR MUSICAL THEATER AND TH,40.839775,-73.839583,3000 EAST TREMONT AVENUE,10461,Pelham - Throgs Neck,X,Bronx,72
72X297,X297,MORRIS ACADEMY FOR COLLABORATIVE STUDIES,40.827455,-73.90392,1110 BOSTON ROAD,10456,High Bridge - Morrisania,X,Bronx,72
72X299,X299,ASTOR COLLEGIATE ACADEMY,40.860443,-73.860729,925 ASTOR AVENUE,10469,Northeast Bronx,X,Bronx,72
72X312,X312,MILLENNIUM ART ACADEMY,40.821218,-73.85593,1980 LAFAYETTE AVENUE,10473,Pelham - Throgs Neck,X,Bronx,72
72X320,X320,PELHAM LAB HIGH SCHOOL,40.839775,-73.839583,3000 EAST TREMONT AVENUE,10461,Pelham - Throgs Neck,X,Bronx,72
72X329,X329,DREAMYARD PREPARATORY SCHOOL,40.839307,-73.911366,240 EAST 172 STREET,10457,Crotona - Tremont,X,Bronx,72
72X334,X334,INTERNATIONAL COMMUNITY HIGH SCHOOL,40.810314,-73.918774,345 BROOK AVENUE,10454,Hunts Point - Mott Haven,X,Bronx,72
72X348,X348,SCHUYLERVILLE PREPARATORY HIGH SCHOOL,40.839775,-73.839583,3000 EAST TREMONT AVENUE,10461,Pelham - Throgs Neck,X,Bronx,72
72X349,X349,BRONX RIVER HIGH SCHOOL,40.839775,-73.839583,3000 EAST TREMONT AVENUE,10461,Pelham - Throgs Neck,X,Bronx,72
72X351,X351,BRONX COLLABORATIVE HIGH SCHOOL,40.879958,-73.889011,100 WEST MOSHOLU PARKWAY SOUTH,10468,Fordham - Bronx Park,X,Bronx,72
72X353,X353,WORLD VIEW HIGH SCHOOL,40.879958,-73.889011,100 WEST MOSHOLU PARKWAY SOUTH,10468,Fordham - Bronx Park,X,Bronx,72
72X365,X365,ACADEMY FOR LANGUAGE AND TECHNOLOGY,40.849416,-73.915217,1700 MACOMBS ROAD,10453,Crotona - Tremont,X,Bronx,72
72X374,X374,KNOWLEDGE AND POWER PREPARATORY ACADEMY INTERNATIO,40.859466,-73.888625,500 EAST FORDHAM ROAD,10458,Fordham - Bronx Park,X,Bronx,72
72X377,X377,BRONX COMMUNITY HIGH SCHOOL,40.677968,-74.014363,173 CONOVER STREET,11231,Downtown - Heights - Park Slope,X,Bronx,72
72X377,X377,BRONX COMMUNITY HIGH SCHOOL,40.677968,-74.014363,173 CONOVER STREET,11232,Downtown - Heights - Park Slope,X,Bronx,72
72X377,X377,BRONX COMMUNITY HIGH SCHOOL,40.677968,-74.014363,173 CONOVER STREET,11233,Downtown - Heights - Park Slope,X,Bronx,72
72X377,X377,BRONX COMMUNITY HIGH SCHOOL,40.677968,-74.014363,173 CONOVER STREET,11234,Downtown - Heights - Park Slope,X,Bronx,72
72X377,X377,BRONX COMMUNITY HIGH SCHOOL,40.677968,-74.014363,173 CONOVER STREET,11235,Downtown - Heights - Park Slope,X,Bronx,72
72X377,X377,BRONX COMMUNITY HIGH SCHOOL,40.677968,-74.014363,173 CONOVER STREET,11236,Downtown - Heights - Park Slope,X,Bronx,72
72X377,X377,BRONX COMMUNITY HIGH SCHOOL,40.677968,-74.014363,173 CONOVER STREET,11237,Downtown - Heights - Park Slope,X,Bronx,72
72X377,X377,BRONX COMMUNITY HIGH SCHOOL,40.677968,-74.014363,173 CONOVER STREET,11238,Downtown - Heights - Park Slope,X,Bronx,72
72X377,X377,BRONX COMMUNITY HIGH SCHOOL,40.677968,-74.014363,173 CONOVER STREET,11239,Downtown - Heights - Park Slope,X,Bronx,72
72X377,X377,BRONX COMMUNITY HIGH SCHOOL,40.677968,-74.014363,173 CONOVER STREET,11240,Downtown - Heights - Park Slope,X,Bronx,72
72X377,X377,BRONX COMMUNITY HIGH SCHOOL,40.677968,-74.014363,173 CONOVER STREET,11241,Downtown - Heights - Park Slope,X,Bronx,72
72X377,X377,BRONX COMMUNITY HIGH SCHOOL,40.677968,-74.014363,173 CONOVER STREET,11242,Downtown - Heights - Park Slope,X,Bronx,72
72X377,X377,BRONX COMMUNITY HIGH SCHOOL,40.677968,-74.014363,173 CONOVER STREET,11243,Downtown - Heights - Park Slope,X,Bronx,72
72X377,X377,BRONX COMMUNITY HIGH SCHOOL,40.677968,-74.014363,173 CONOVER STREET,11244,Downtown - Heights - Park Slope,X,Bronx,72
72X377,X377,BRONX COMMUNITY HIGH SCHOOL,40.677968,-74.014363,173 CONOVER STREET,11245,Downtown - Heights - Park Slope,X,Bronx,72
72X377,X377,BRONX COMMUNITY HIGH SCHOOL,40.677968,-74.014363,173 CONOVER STREET,11246,Downtown - Heights - Park Slope,X,Bronx,72
76K529,K529,WEST BROOKLYN COMMUNITY HIGH SCHOOL,40.677968,-74.014363,173 CONOVER STREET,11231,Downtown - Heights - Park Slope,K,Brooklyn,76
76K529,K529,WEST BROOKLYN COMMUNITY HIGH SCHOOL,40.677968,-74.014363,173 CONOVER STREET,11232,Downtown - Heights - Park Slope,K,Brooklyn,76
76K529,K529,WEST BROOKLYN COMMUNITY HIGH SCHOOL,40.677968,-74.014363,173 CONOVER STREET,11233,Downtown - Heights - Park Slope,K,Brooklyn,76
76K529,K529,WEST BROOKLYN COMMUNITY HIGH SCHOOL,40.677968,-74.014363,173 CONOVER STREET,11234,Downtown - Heights - Park Slope,K,Brooklyn,76
76K529,K529,WEST BROOKLYN COMMUNITY HIGH SCHOOL,40.677968,-74.014363,173 CONOVER STREET,11235,Downtown - Heights - Park Slope,K,Brooklyn,76
76K529,K529,WEST BROOKLYN COMMUNITY HIGH SCHOOL,40.677968,-74.014363,173 CONOVER STREET,11236,Downtown - Heights - Park Slope,K,Brooklyn,76
76K529,K529,WEST BROOKLYN COMMUNITY HIGH SCHOOL,40.677968,-74.014363,173 CONOVER STREET,11237,Downtown - Heights - Park Slope,K,Brooklyn,76
76K529,K529,WEST BROOKLYN COMMUNITY HIGH SCHOOL,40.677968,-74.014363,173 CONOVER STREET,11238,Downtown - Heights - Park Slope,K,Brooklyn,76
76K529,K529,WEST BROOKLYN COMMUNITY HIGH SCHOOL,40.677968,-74.014363,173 CONOVER STREET,11239,Downtown - Heights - Park Slope,K,Brooklyn,76
76K529,K529,WEST BROOKLYN COMMUNITY HIGH SCHOOL,40.677968,-74.014363,173 CONOVER STREET,11240,Downtown - Heights - Park Slope,K,Brooklyn,76
76K529,K529,WEST BROOKLYN COMMUNITY HIGH SCHOOL,40.677968,-74.014363,173 CONOVER STREET,11241,Downtown - Heights - Park Slope,K,Brooklyn,76
76K529,K529,WEST BROOKLYN COMMUNITY HIGH SCHOOL,40.677968,-74.014363,173 CONOVER STREET,11242,Downtown - Heights - Park Slope,K,Brooklyn,76
76K529,K529,WEST BROOKLYN COMMUNITY HIGH SCHOOL,40.677968,-74.014363,173 CONOVER STREET,11243,Downtown - Heights - Park Slope,K,Brooklyn,76
76K529,K529,WEST BROOKLYN COMMUNITY HIGH SCHOOL,40.677968,-74.014363,173 CONOVER STREET,11244,Downtown - Heights - Park Slope,K,Brooklyn,76
76K529,K529,WEST BROOKLYN COMMUNITY HIGH SCHOOL,40.677968,-74.014363,173 CONOVER STREET,11245,Downtown - Heights - Park Slope,K,Brooklyn,76
76K529,K529,WEST BROOKLYN COMMUNITY HIGH SCHOOL,40.677968,-74.014363,173 CONOVER STREET,11246,Downtown - Heights - Park Slope,K,Brooklyn,76
76K673,K673,EAST BROOKLYN COMMUNITY HIGH SCHOOL,40.677968,-74.014363,173 CONOVER STREET,11231,Downtown - Heights - Park Slope,K,Brooklyn,76
76K673,K673,EAST BROOKLYN COMMUNITY HIGH SCHOOL,40.677968,-74.014363,173 CONOVER STREET,11232,Downtown - Heights - Park Slope,K,Brooklyn,76
76K673,K673,EAST BROOKLYN COMMUNITY HIGH SCHOOL,40.677968,-74.014363,173 CONOVER STREET,11233,Downtown - Heights - Park Slope,K,Brooklyn,76
76K673,K673,EAST BROOKLYN COMMUNITY HIGH SCHOOL,40.677968,-74.014363,173 CONOVER STREET,11234,Downtown - Heights - Park Slope,K,Brooklyn,76
76K673,K673,EAST BROOKLYN COMMUNITY HIGH SCHOOL,40.677968,-74.014363,173 CONOVER STREET,11235,Downtown - Heights - Park Slope,K,Brooklyn,76
76K673,K673,EAST BROOKLYN COMMUNITY HIGH SCHOOL,40.677968,-74.014363,173 CONOVER STREET,11236,Downtown - Heights - Park Slope,K,Brooklyn,76
76K673,K673,EAST BROOKLYN COMMUNITY HIGH SCHOOL,40.677968,-74.014363,173 CONOVER STREET,11237,Downtown - Heights - Park Slope,K,Brooklyn,76
76K673,K673,EAST BROOKLYN COMMUNITY HIGH SCHOOL,40.677968,-74.014363,173 CONOVER STREET,11238,Downtown - Heights - Park Slope,K,Brooklyn,76
76K673,K673,EAST BROOKLYN COMMUNITY HIGH SCHOOL,40.677968,-74.014363,173 CONOVER STREET,11239,Downtown - Heights - Park Slope,K,Brooklyn,76
76K673,K673,EAST BROOKLYN COMMUNITY HIGH SCHOOL,40.677968,-74.014363,173 CONOVER STREET,11240,Downtown - Heights - Park Slope,K,Brooklyn,76
76K673,K673,EAST BROOKLYN COMMUNITY HIGH SCHOOL,40.677968,-74.014363,173 CONOVER STREET,11241,Downtown - Heights - Park Slope,K,Brooklyn,76
76K673,K673,EAST BROOKLYN COMMUNITY HIGH SCHOOL,40.677968,-74.014363,173 CONOVER STREET,11242,Downtown - Heights - Park Slope,K,Brooklyn,76
76K673,K673,EAST BROOKLYN COMMUNITY HIGH SCHOOL,40.677968,-74.014363,173 CONOVER STREET,11243,Downtown - Heights - Park Slope,K,Brooklyn,76
76K673,K673,EAST BROOKLYN COMMUNITY HIGH SCHOOL,40.677968,-74.014363,173 CONOVER STREET,11244,Downtown - Heights - Park Slope,K,Brooklyn,76
76K673,K673,EAST BROOKLYN COMMUNITY HIGH SCHOOL,40.677968,-74.014363,173 CONOVER STREET,11245,Downtown - Heights - Park Slope,K,Brooklyn,76
76K673,K673,EAST BROOKLYN COMMUNITY HIGH SCHOOL,40.677968,-74.014363,173 CONOVER STREET,11246,Downtown - Heights - Park Slope,K,Brooklyn,76
76K698,K698,SOUTH BROOKLYN COMMUNITY HIGH SCHOOL,40.677968,-74.014363,173 CONOVER STREET,11231,Downtown - Heights - Park Slope,K,Brooklyn,76
76K698,K698,SOUTH BROOKLYN COMMUNITY HIGH SCHOOL,40.677968,-74.014363,173 CONOVER STREET,11232,Downtown - Heights - Park Slope,K,Brooklyn,76
76K698,K698,SOUTH BROOKLYN COMMUNITY HIGH SCHOOL,40.677968,-74.014363,173 CONOVER STREET,11233,Downtown - Heights - Park Slope,K,Brooklyn,76
76K698,K698,SOUTH BROOKLYN COMMUNITY HIGH SCHOOL,40.677968,-74.014363,173 CONOVER STREET,11234,Downtown - Heights - Park Slope,K,Brooklyn,76
76K698,K698,SOUTH BROOKLYN COMMUNITY HIGH SCHOOL,40.677968,-74.014363,173 CONOVER STREET,11235,Downtown - Heights - Park Slope,K,Brooklyn,76
76K698,K698,SOUTH BROOKLYN COMMUNITY HIGH SCHOOL,40.677968,-74.014363,173 CONOVER STREET,11236,Downtown - Heights - Park Slope,K,Brooklyn,76
76K698,K698,SOUTH BROOKLYN COMMUNITY HIGH SCHOOL,40.677968,-74.014363,173 CONOVER STREET,11237,Downtown - Heights - Park Slope,K,Brooklyn,76
76K698,K698,SOUTH BROOKLYN COMMUNITY HIGH SCHOOL,40.677968,-74.014363,173 CONOVER STREET,11238,Downtown - Heights - Park Slope,K,Brooklyn,76
76K698,K698,SOUTH BROOKLYN COMMUNITY HIGH SCHOOL,40.677968,-74.014363,173 CONOVER STREET,11239,Downtown - Heights - Park Slope,K,Brooklyn,76
76K698,K698,SOUTH BROOKLYN COMMUNITY HIGH SCHOOL,40.677968,-74.014363,173 CONOVER STREET,11240,Downtown - Heights - Park Slope,K,Brooklyn,76
76K698,K698,SOUTH BROOKLYN COMMUNITY HIGH SCHOOL,40.677968,-74.014363,173 CONOVER STREET,11241,Downtown - Heights - Park Slope,K,Brooklyn,76
76K698,K698,SOUTH BROOKLYN COMMUNITY HIGH SCHOOL,40.677968,-74.014363,173 CONOVER STREET,11242,Downtown - Heights - Park Slope,K,Brooklyn,76
76K698,K698,SOUTH BROOKLYN COMMUNITY HIGH SCHOOL,40.677968,-74.014363,173 CONOVER STREET,11243,Downtown - Heights - Park Slope,K,Brooklyn,76
76K698,K698,SOUTH BROOKLYN COMMUNITY HIGH SCHOOL,40.677968,-74.014363,173 CONOVER STREET,11244,Downtown - Heights - Park Slope,K,Brooklyn,76
76K698,K698,SOUTH BROOKLYN COMMUNITY HIGH SCHOOL,40.677968,-74.014363,173 CONOVER STREET,11245,Downtown - Heights - Park Slope,K,Brooklyn,76
76K698,K698,SOUTH BROOKLYN COMMUNITY HIGH SCHOOL,40.677968,-74.014363,173 CONOVER STREET,11246,Downtown - Heights - Park Slope,K,Brooklyn,76
72X379,X379,JILL CHAIFETZ TRANSFER HIGH SCHOOL,40.818703,-73.905389,778 FOREST AVENUE,10456,High Bridge - Morrisania,X,Bronx,72
72X381,X381,BRONX HAVEN HIGH SCHOOL,40.818645,-73.919949,333 EAST 151 STREET,10451,High Bridge - Morrisania,X,Bronx,72
72X388,X388,PAN AMERICAN INTERNATIONAL HIGH SCHOOL AT MONROE,40.743228,-73.871505,45-10 94 STREET,11373,West Queens,X,Bronx,72
77Q296,Q296,PAN AMERICAN INTERNATIONAL HIGH SCHOOL,40.743228,-73.871505,45-10 94 STREET,11373,West Queens,Q,Queens,77
72X403,X403,BRONX INTERNATIONAL HIGH SCHOOL,40.827455,-73.90392,1110 BOSTON ROAD,10456,High Bridge - Morrisania,X,Bronx,72
73K439,K439,BROOKLYN INTERNATIONAL HIGH SCHOOL,40.827455,-73.90392,1110 BOSTON ROAD,10456,High Bridge - Morrisania,K,Brooklyn,73
72X404,X404,SCHOOL FOR EXCELLENCE,40.827455,-73.90392,1110 BOSTON ROAD,10456,High Bridge - Morrisania,X,Bronx,72
72X405,X405,HERBERT H. LEHMAN HIGH SCHOOL,40.839775,-73.839583,3000 EAST TREMONT AVENUE,10461,Pelham - Throgs Neck,X,Bronx,72
72X412,X412,BRONX HIGH SCHOOL OF BUSINESS,40.839307,-73.911366,240 EAST 172 STREET,10457,Crotona - Tremont,X,Bronx,72
72X418,X418,BRONX HIGH SCHOOL FOR THE VISUAL ARTS,40.851577,-73.864438,2040 ANTIN PL,10462,Pelham - Throgs Neck,X,Bronx,72
72X427,X427,COMMUNITY SCHOOL FOR SOCIAL JUSTICE,40.815712,-73.92996,350 GERARD AVENUE,10451,High Bridge - Morrisania,X,Bronx,72
72X432,X432,BRONX BRIDGES HIGH SCHOOL,40.821218,-73.85593,1980 LAFAYETTE AVENUE,10473,Pelham - Throgs Neck,X,Bronx,72
72X433,X433,HIGH SCHOOL FOR TEACHING AND THE PROFESSIONS,40.869061,-73.897066,2780 RESERVOIR AVENUE,10468,Fordham - Bronx Park,X,Bronx,72
72X434,X434,BELMONT PREPARATORY HIGH SCHOOL,40.859466,-73.888625,500 EAST FORDHAM ROAD,10458,Fordham - Bronx Park,X,Bronx,72
72X437,X437,FORDHAM HIGH SCHOOL FOR THE ARTS,40.859466,-73.888625,500 EAST FORDHAM ROAD,10458,Fordham - Bronx Park,X,Bronx,72
72X438,X438,FORDHAM LEADERSHIP ACADEMY,40.859466,-73.888625,500 EAST FORDHAM ROAD,10458,Fordham - Bronx Park,X,Bronx,72
72X439,X439,BRONX HIGH SCHOOL FOR LAW AND COMMUNITY SERVICE,40.859466,-73.888625,500 EAST FORDHAM ROAD,10458,Fordham - Bronx Park,X,Bronx,72
72X440,X440,DEWITT CLINTON HIGH SCHOOL,40.879958,-73.889011,100 WEST MOSHOLU PARKWAY SOUTH,10468,Fordham - Bronx Park,X,Bronx,72
72X442,X442,CELIA CRUZ BRONX HIGH SCHOOL OF MUSIC  THE,40.869061,-73.897066,2780 RESERVOIR AVENUE,10468,Fordham - Bronx Park,X,Bronx,72
72X445,X445,THE BRONX HIGH SCHOOL OF SCIENCE,40.879958,-73.889011,75 WEST 205 STREET,10468,Fordham - Bronx Park,X,Bronx,72
72X446,X446,ARTURO A. SCHOMBURG SATELLITE ACADEMY BRONX,40.823124,-73.898265,1010 REV. J. A. POLITE AVENUE,10459,Hunts Point - Mott Haven,X,Bronx,72
72X452,X452,GOTHAM COLLABORATIVE HIGH SCHOOL,40.821218,-73.85593,1980 LAFAYETTE AVENUE,10473,Pelham - Throgs Neck,X,Bronx,72
72X455,X455,HARRY S TRUMAN HIGH SCHOOL,40.874035,-73.831669,750 BAYCHESTER AVENUE,10475,Northeast Bronx,X,Bronx,72
72X473,X473,MOTT HAVEN VILLAGE PREPARATORY HIGH SCHOOL,40.818041,-73.911633,701 ST. ANNS AVENUE,10455,Hunts Point - Mott Haven,X,Bronx,72
72X477,X477,MARBLE HILL HIGH SCHOOL FOR INTERNATIONAL STUDIES,40.877379,-73.912686,99 TERRACE VIEW AVENUE,10463,Kingsbridge - Riverdale,X,Bronx,72
72X478,X478,THE CINEMA SCHOOL,40.832508,-73.878191,1551 EAST 172 STREET,10472,Pelham - Throgs Neck,X,Bronx,72
02M260,M260,THE CLINTON SCHOOL,40.832508,-73.878191,1551 EAST 172 STREET,10472,Pelham - Throgs Neck,M,Manhattan,2
72X479,X479,BRONX CAREER AND COLLEGE PREPARATORY HIGH SCHOOL,40.826933,-73.900593,800 HOME STREET,10456,High Bridge - Morrisania,X,Bronx,72
72X480,X480,BRONX REGIONAL HIGH SCHOOL,40.823124,-73.898265,1010 REV. J. A. POLITE AVENUE,10459,Hunts Point - Mott Haven,X,Bronx,72
72X509,X509,HIGH SCHOOL OF LANGUAGE AND INNOVATION,40.860443,-73.860729,925 ASTOR AVENUE,10469,Northeast Bronx,X,Bronx,72
72X511,X511,BRONX ENVISION ACADEMY,40.836245,-73.890591,1619 BOSTON ROAD,10460,Crotona - Tremont,X,Bronx,72
72X513,X513,NEW WORLD HIGH SCHOOL,40.888242,-73.852714,921 EAST 228 STREET,10466,Northeast Bronx,X,Bronx,72
72X514,X514,THE BRONXWOOD PREPARATORY ACADEMY,40.888242,-73.852714,921 EAST 228 STREET,10466,Northeast Bronx,X,Bronx,72
72X517,X517,FREDERICK DOUGLASS ACADEMY III SECONDARY SCHOOL,40.665568,-73.912102,226 BRISTOL STREET,11212,Bedford Stuyvesant - Crown Heights,X,Bronx,72
73K514,K514,FREDERICK DOUGLASS ACADEMY VII HIGH SCHOOL,40.665568,-73.912102,226 BRISTOL STREET,11212,Bedford Stuyvesant - Crown Heights,K,Brooklyn,73
03M860,M860,FREDERICK DOUGLASS ACADEMY II SECONDARY SCHOOL,40.665568,-73.912102,226 BRISTOL STREET,11212,Bedford Stuyvesant - Crown Heights,M,Manhattan,3
72X521,X521,THE METROPOLITAN SOUNDVIEW HIGH SCHOOL,40.832508,-73.878191,1300 BOYNTON AVENUE,10472,Pelham - Throgs Neck,X,Bronx,72
72X522,X522,BRONX DESIGN AND CONSTRUCTION ACADEMY,40.818645,-73.919949,333 EAST 151 STREET,10451,High Bridge - Morrisania,X,Bronx,72
72X524,X524,CROTONA INTERNATIONAL HIGH SCHOOL,40.855392,-73.882487,2474 CROTONA AVENUE,10458,Fordham - Bronx Park,X,Bronx,72
72X525,X525,BRONX LEADERSHIP ACADEMY HIGH SCHOOL,40.84325,-73.902969,1710 WEBSTER AVENUE,10457,Crotona - Tremont,X,Bronx,72
72X527,X527,BRONX LEADERSHIP ACADEMY II HIGH SCHOOL,40.821828,-73.922366,730 CONCOURSE VILLAGE WEST,10451,High Bridge - Morrisania,X,Bronx,72
72X530,X530,LONGWOOD PREPARATORY ACADEMY,40.817741,-73.897876,965 LONGWOOD AVENUE,10459,Hunts Point - Mott Haven,X,Bronx,72
72X542,X542,PELHAM PREPARATORY ACADEMY,40.860443,-73.860729,925 ASTOR AVENUE,10469,Northeast Bronx,X,Bronx,72
72X543,X543,HIGH SCHOOL FOR VIOLIN AND DANCE,40.827455,-73.90392,1110 BOSTON ROAD,10456,High Bridge - Morrisania,X,Bronx,72
72X544,X544,HIGH SCHOOL FOR CONTEMPORARY ARTS,40.875172,-73.861649,800 EAST GUN HILL ROAD,10467,Fordham - Bronx Park,X,Bronx,72
72X545,X545,BRONX AEROSPACE HIGH SCHOOL,40.875172,-73.861649,800 EAST GUN HILL ROAD,10467,Fordham - Bronx Park,X,Bronx,72
72X546,X546,BRONX THEATRE HIGH SCHOOL,40.877379,-73.912686,99 TERRACE VIEW AVENUE,10463,Kingsbridge - Riverdale,X,Bronx,72
72X548,X548,CAREERS IN SPORTS HIGH SCHOOL,40.821828,-73.922366,730 CONCOURSE VILLAGE WEST,10451,High Bridge - Morrisania,X,Bronx,72
72X550,X550,HIGH SCHOOL OF WORLD CULTURES,40.832508,-73.878191,1300 BOYNTON AVENUE,10472,Pelham - Throgs Neck,X,Bronx,72
72X557,X557,MOTT HAVEN COMMUNITY HIGH SCHOOL,40.810671,-73.907528,455 SOUTHERN BLVD,10455,Hunts Point - Mott Haven,X,Bronx,72
77Q792,Q792,NORTH QUEENS COMMUNITY HIGH SCHOOL,40.810671,-73.907528,455 SOUTHERN BLVD,10455,Hunts Point - Mott Haven,Q,Queens,77
72X558,X558,WESTCHESTER SQUARE ACADEMY,40.839775,-73.839583,3000 EAST TREMONT AVENUE,10461,Pelham - Throgs Neck,X,Bronx,72
72X561,X561,BRONX COMPASS HIGH SCHOOL,40.821218,-73.85593,1980 LAFAYETTE AVENUE,10473,Pelham - Throgs Neck,X,Bronx,72
72X565,X565,HIGH SCHOOL FOR ENERGY AND TECHNOLOGY,40.855392,-73.882487,2474 CROTONA AVENUE,10458,Fordham - Bronx Park,X,Bronx,72
72X600,X600,ALFRED E. SMITH CAREER AND TECHNICAL EDUCATION HIG,40.818645,-73.919949,333 EAST 151 STREET,10451,High Bridge - Morrisania,X,Bronx,72
73K615,K615,TRANSIT TECH CAREER AND TECHNICAL EDUCATION HIGH S,40.818645,-73.919949,333 EAST 151 STREET,10451,High Bridge - Morrisania,K,Brooklyn,73
72X670,X670,HEALTH OPPORTUNITIES HIGH SCHOOL,40.815712,-73.92996,350 GERARD AVENUE,10451,High Bridge - Morrisania,X,Bronx,72
72X682,X682,FANNIE LOU HAMER FREEDOM HIGH SCHOOL,40.831212,-73.885804,1021 JENNINGS STREET,10460,Crotona - Tremont,X,Bronx,72
72X684,X684,WINGS ACADEMY,40.841376,-73.875262,1122 EAST 180 STREET,10460,Crotona - Tremont,X,Bronx,72
72X696,X696,HIGH SCHOOL OF AMERICAN STUDIES AT LEHMAN COLLEGE,40.874725,-73.895543,2925 GOULDEN AVENUE,10458,Fordham - Bronx Park,X,Bronx,72
73K122,K122,PATHWAYS IN TECHNOLOGY EARLY COLLEGE HIGH SCHOOL (,40.675905,-73.939282,150 ALBANY AVENUE,11213,Bedford Stuyvesant - Crown Heights,K,Brooklyn,73
73K337,K337,INTERNATIONAL HIGH SCHOOL AT LAFAYETTE,40.593028,-73.986313,2630 BENSON AVENUE,11214,Bensonhurst - Bay Ridge,K,Brooklyn,73
73K348,K348,HIGH SCHOOL OF SPORTS MANAGEMENT,40.593028,-73.986313,2630 BENSON AVENUE,11214,Bensonhurst - Bay Ridge,K,Brooklyn,73
73K350,K350,URBAN ASSEMBLY SCHOOL OF MUSIC AND ART,40.69733,-73.984528,49 FLATBUSH AVENUE EXTENSION,11201,Downtown - Heights - Park Slope,K,Brooklyn,73
73K403,K403,ACADEMY FOR EXCELLENCE IN LEADERSHIP,40.696457,-73.911751,400 IRVING AVENUE,11237,Williamsburg - Bushwick,K,Brooklyn,73
73K405,K405,MIDWOOD HIGH SCHOOL,40.632829,-73.952356,2839 BEDFORD AVENUE,11210,East Flatbush - Flatbush,K,Brooklyn,73
73K408,K408,ACADEMY OF HOSPITALITY AND TOURISM,40.649602,-73.957173,911 FLATBUSH AVENUE,11226,East Flatbush - Flatbush,K,Brooklyn,73
73K412,K412,BROOKLYN COMMUNITY ARTS & MEDIA HIGH SCHOOL (BCAM),40.692015,-73.95818,300 WILLOUGHBY AVENUE,11205,Downtown - Heights - Park Slope,K,Brooklyn,73
73K425,K425,JAMES MADISON HIGH SCHOOL,40.610499,-73.947661,3787 BEDFORD AVENUE,11229,Coney Island - Sheepshead Bay ,K,Brooklyn,73
73K445,K445,NEW UTRECHT HIGH SCHOOL,40.613041,-74.002308,1601 80 STREET,11214,Bensonhurst - Bay Ridge,K,Brooklyn,73
02M413,M413,SCHOOL OF THE FUTURE HIGH SCHOOL,40.613041,-74.002308,1601 80 STREET,11214,Bensonhurst - Bay Ridge,M,Manhattan,2
73K488,K488,BROOKLYN PREPARATORY HIGH SCHOOL,40.715561,-73.954815,257 N 6 STREET,11211,Greenpoint,K,Brooklyn,73
73K493,K493,BROOKLYN COLLEGIATE: A COLLEGE BOARD SCHOOL,40.674456,-73.912685,2021 BERGEN STREET,11233,Bedford Stuyvesant - Crown Heights,K,Brooklyn,73
73K504,K504,HIGH SCHOOL FOR CIVIL RIGHTS,40.666868,-73.895122,400 PENNSYLVANIA AVENUE,11207,East New York,K,Brooklyn,73
73K505,K505,FRANKLIN DELANO ROOSEVELT HIGH SCHOOL,40.621299,-73.982583,5800 20 AVENUE,11204,Borough Park,K,Brooklyn,73
73K507,K507,PERFORMING ARTS AND TECHNOLOGY HIGH SCHOOL,40.666868,-73.895122,400 PENNSYLVANIA AVENUE,11207,East New York,K,Brooklyn,73
73K510,K510,WORLD ACADEMY FOR TOTAL COMMUNITY HEALTH HIGH SCHO,40.666868,-73.895122,400 PENNSYLVANIA AVENUE,11207,East New York,K,Brooklyn,73
73K525,K525,EDWARD R. MURROW HIGH SCHOOL,40.619671,-73.959141,1600 AVENUE L,11230,Borough Park,K,Brooklyn,73
73K528,K528,THE HIGH SCHOOL FOR GLOBAL CITIZENSHIP,40.669805,-73.960689,883 CLASSON AVENUE,11225,East Flatbush - Flatbush,K,Brooklyn,73
73K531,K531,SCHOOL FOR HUMAN RIGHTS  THE,40.658671,-73.943839,600 KINGSTON AVENUE,11203,East Flatbush - Flatbush,K,Brooklyn,73
73K535,K535,LEON M. GOLDSTEIN HIGH SCHOOL FOR THE SCIENCES,40.578356,-73.934449,1830 SHORE BOULEVARD,11235,Coney Island - Sheepshead Bay ,K,Brooklyn,73
73K537,K537,HIGH SCHOOL FOR YOUTH AND COMMUNITY DEVELOPMENT AT,40.649602,-73.957173,911 FLATBUSH AVENUE,11226,East Flatbush - Flatbush,K,Brooklyn,73
73K539,K539,HIGH SCHOOL FOR SERVICE & LEARNING AT ERASMUS,40.649602,-73.957173,911 FLATBUSH AVENUE,11226,East Flatbush - Flatbush,K,Brooklyn,73
73K540,K540,JOHN DEWEY HIGH SCHOOL,40.58807,-73.981925,50 AVENUE X,11223,Coney Island - Sheepshead Bay ,K,Brooklyn,73
73K545,K545,EBC HIGH SCHOOL FOR PUBLIC SERVICE - BUSHWICK,40.694723,-73.929315,1155 DEKALB AVENUE,11221,Williamsburg - Bushwick,K,Brooklyn,73
73K546,K546,HIGH SCHOOL FOR PUBLIC SERVICE: HEROES OF TOMORROW,40.658671,-73.943839,600 KINGSTON AVENUE,11203,East Flatbush - Flatbush,K,Brooklyn,73
73K547,K547,BROOKLYN ACADEMY OF SCIENCE AND THE ENVIRONMENT,40.669805,-73.960689,883 CLASSON AVENUE,11225,East Flatbush - Flatbush,K,Brooklyn,73
73K548,K548,BROOKLYN SCHOOL FOR MUSIC & THEATRE,40.669805,-73.960689,883 CLASSON AVENUE,11225,East Flatbush - Flatbush,K,Brooklyn,73
73K549,K549,THE BROOKLYN SCHOOL FOR SOCIAL JUSTICE,40.696457,-73.911751,400 IRVING AVENUE,11237,Williamsburg - Bushwick,K,Brooklyn,73
73K552,K552,THE ACADEMY OF URBAN PLANNING AND ENGINEERING,40.696457,-73.911751,400 IRVING AVENUE,11237,Williamsburg - Bushwick,K,Brooklyn,73
73K556,K556,BUSHWICK LEADERS HIGH SCHOOL FOR ACADEMIC EXCELLEN,40.695436,-73.927349,797 BUSHWICK AVENUE,11221,Williamsburg - Bushwick,K,Brooklyn,73
73K563,K563,IT TAKES A VILLAGE ACADEMY,40.647728,-73.922212,5800 TILDEN AVENUE,11203,East Flatbush - Flatbush,K,Brooklyn,73
73K564,K564,BUSHWICK COMMUNITY HIGH SCHOOL,40.695875,-73.915217,231 PALMETTO STREET,11221,Williamsburg - Bushwick,K,Brooklyn,73
73K566,K566,BROOKLYN COMMUNITY HIGH SCHOOL FOR EXCELLENCE AND,40.634451,-73.916927,6565 FLATLANDS AVENUE,11236,Canarsie - Flatlands,K,Brooklyn,73
73K567,K567,BROOKLYN THEATRE ARTS HIGH SCHOOL,40.634451,-73.916927,6565 FLATLANDS AVENUE,11236,Canarsie - Flatlands,K,Brooklyn,73
73K569,K569,KURT HAHN EXPEDITIONARY LEARNING SCHOOL,40.647728,-73.922212,5800 TILDEN AVENUE,11203,East Flatbush - Flatbush,K,Brooklyn,73
73K576,K576,VICTORY COLLEGIATE HIGH SCHOOL,40.634451,-73.916927,6565 FLATLANDS AVENUE,11236,Canarsie - Flatlands,K,Brooklyn,73
73K583,K583,MULTICULTURAL HIGH SCHOOL,40.693002,-73.869305,999 JAMAICA AVENUE,11208,East New York,K,Brooklyn,73
73K592,K592,KHALIL GIBRAN INTERNATIONAL ACADEMY,40.686147,-73.979829,362 SCHERMERHORN STREET,11217,Downtown - Heights - Park Slope,K,Brooklyn,73
73K595,K595,BEDFORD ACADEMY HIGH SCHOOL,40.685486,-73.953692,1119 BEDFORD AVENUE,11216,Bedford Stuyvesant - Crown Heights,K,Brooklyn,73
73K600,K600,CLARA BARTON HIGH SCHOOL,40.669805,-73.960689,901 CLASSON AVENUE,11225,East Flatbush - Flatbush,K,Brooklyn,73
73K611,K611,ORIGINS HIGH SCHOOL,40.593157,-73.936635,3000 AVENUE X,11235,Coney Island - Sheepshead Bay ,K,Brooklyn,73
73K616,K616,BROOKLYN HIGH SCHOOL FOR LEADERSHIP AND COMMUNITY,40.692015,-73.95818,300 WILLOUGHBY AVENUE,11205,Downtown - Heights - Park Slope,K,Brooklyn,73
73K617,K617,HIGH SCHOOL FOR INNOVATION IN ADVERTISING AND MEDI,40.640543,-73.898601,1600 ROCKAWAY PARKWAY,11236,Canarsie - Flatlands,K,Brooklyn,73
73K618,K618,ACADEMY OF INNOVATIVE TECHNOLOGY,40.693002,-73.869305,999 JAMAICA AVENUE,11208,East New York,K,Brooklyn,73
73K629,K629,CULTURAL ACADEMY FOR THE ARTS AND SCIENCES,40.647728,-73.922212,5800 TILDEN AVENUE,11203,East Flatbush - Flatbush,K,Brooklyn,73
73K630,K630,PROFESSIONAL PATHWAYS HIGH SCHOOL,40.593157,-73.936635,3000 AVENUE X,11235,Coney Island - Sheepshead Bay ,K,Brooklyn,73
73K633,K633,HIGH SCHOOL FOR MEDICAL PROFESSIONS,40.640543,-73.898601,1600 ROCKAWAY PARKWAY,11236,Canarsie - Flatlands,K,Brooklyn,73
73K635,K635,OLYMPUS ACADEMY,40.645965,-73.898607,755 EAST 100 STREET,11236,Canarsie - Flatlands,K,Brooklyn,73
73K637,K637,ACADEMY FOR CONSERVATION AND THE ENVIRONMENT,40.634451,-73.916927,6565 FLATLANDS AVENUE,11236,Canarsie - Flatlands,K,Brooklyn,73
73K642,K642,URBAN ACTION ACADEMY,40.640543,-73.898601,1600 ROCKAWAY PARKWAY,11236,Canarsie - Flatlands,K,Brooklyn,73
73K643,K643,BROOKLYN DEMOCRACY ACADEMY,40.655644,-73.906662,985 ROCKAWAY AVENUE,11212,Bedford Stuyvesant - Crown Heights,K,Brooklyn,73
73K646,K646,ASPIRATIONS DIPLOMA PLUS HIGH SCHOOL,40.669561,-73.955188,402 EASTERN PARKWAY,11225,East Flatbush - Flatbush,K,Brooklyn,73
73K659,K659,CYPRESS HILLS COLLEGIATE PREPARATORY SCHOOL,40.693002,-73.869305,999 JAMAICA AVENUE,11208,East New York,K,Brooklyn,73
73K660,K660,W. H. MAXWELL CAREER AND TECHNICAL EDUCATION HIGH,40.673766,-73.895976,145 PENNSYLVANIA AVENUE,11207,East New York,K,Brooklyn,73
73K667,K667,SUNSET PARK HIGH SCHOOL,40.655583,-74.004342,153 35 STREET,11232,Sunset Park,K,Brooklyn,73
73K670,K670,BENJAMIN BANNEKER ACADEMY,40.695389,-73.968759,71-77 CLINTON AVENUE,11205,Downtown - Heights - Park Slope,K,Brooklyn,73
73K683,K683,SCHOOL FOR CLASSICS HIGH SCHOOL,40.67002,-73.874537,370 FOUNTAIN AVENUE,11208,East New York,K,Brooklyn,73
73K697,K697,TEACHERS PREPARATORY HIGH SCHOOL,40.665568,-73.912102,226 BRISTOL STREET,11212,Bedford Stuyvesant - Crown Heights,K,Brooklyn,73
73K745,K745,BROOKLYN INSTITUTE FOR LIBERAL ARTS,40.658671,-73.943839,600 KINGSTON AVENUE,11203,East Flatbush - Flatbush,K,Brooklyn,73
73K751,K751,ACADEMY FOR HEALTH CAREERS,40.675905,-73.939282,150 ALBANY AVENUE,11213,Bedford Stuyvesant - Crown Heights,K,Brooklyn,73
73K764,K764,THE URBAN ASSEMBLY SCHOOL FOR COLLABORATIVE HEALTH,40.693002,-73.869305,999 JAMAICA AVENUE,11208,East New York,K,Brooklyn,73
73K765,K765,NELSON MANDELA HIGH SCHOOL,40.678478,-73.931604,1700 FULTON STREET,11213,Bedford Stuyvesant - Crown Heights,K,Brooklyn,73
76K344,K344,RACHEL CARSON HIGH SCHOOL FOR COASTAL STUDIES,40.582518,-73.972009,521 WEST AVENUE,11224,Coney Island - Sheepshead Bay ,K,Brooklyn,76
76K410,K410,ABRAHAM LINCOLN HIGH SCHOOL,40.582627,-73.968733,2800 OCEAN PARKWAY,11235,Coney Island - Sheepshead Bay ,K,Brooklyn,76
76K423,K423,BROOKLYN FRONTIERS HIGH SCHOOL,40.690007,-73.989369,112 SCHERMERHORN STREET,11201,Downtown - Heights - Park Slope,K,Brooklyn,76
76K429,K429,DIGITAL ARTS AND CINEMA TECHNOLOGY HIGH SCHOOL,40.685006,-73.993293,284 BALTIC STREET,11201,Downtown - Heights - Park Slope,K,Brooklyn,76
76K430,K430,BROOKLYN TECHNICAL HIGH SCHOOL,40.688896,-73.976435,29 FT GREENE PLACE,11217,Downtown - Heights - Park Slope,K,Brooklyn,76
76K449,K449,BROOKLYN LATIN SCHOOL  THE,40.709765,-73.944463,223 GRAHAM AVENUE,11206,Williamsburg - Bushwick,K,Brooklyn,76
76K454,K454,THE WILLIAMSBURG HIGH SCHOOL OF ART AND TECHNOLOGY,40.709765,-73.944463,223 GRAHAM AVENUE,11206,Williamsburg - Bushwick,K,Brooklyn,76
76K455,K455,BOYS AND GIRLS HIGH SCHOOL,40.678478,-73.931604,1700 FULTON STREET,11213,Bedford Stuyvesant - Crown Heights,K,Brooklyn,76
76K462,K462,JOHN JAY SCHOOL FOR LAW,40.669255,-73.97858,237 7 AVENUE,11215,Downtown - Heights - Park Slope,K,Brooklyn,76
76K463,K463,CYBERARTS STUDIO ACADEMY,40.669255,-73.97858,237 7 AVENUE,11215,Downtown - Heights - Park Slope,K,Brooklyn,76
76K474,K474,PROGRESS HIGH SCHOOL FOR PROFESSIONAL CAREERS,40.711134,-73.938921,850 GRAND STREET,11211,Greenpoint,K,Brooklyn,76
76K477,K477,EAST WILLIAMSBURG SCHOLARS ACADEMY,40.711134,-73.938921,850 GRAND STREET,11211,Greenpoint,K,Brooklyn,76
76K483,K483,THE URBAN ASSEMBLY SCHOOL FOR LAW AND JUSTICE,40.694629,-73.988323,283 ADAMS STREET,11201,Downtown - Heights - Park Slope,K,Brooklyn,76
76K485,K485,HIGH SCHOOL OF TELECOMMUNICATION ARTS AND TECHNOLO,40.636721,-74.023419,350 67 STREET,11220,Sunset Park,K,Brooklyn,76
76K490,K490,FORT HAMILTON HIGH SCHOOL,40.626827,-74.038103,8301 SHORE ROAD,11209,Bensonhurst - Bay Ridge,K,Brooklyn,76
76K498,K498,BROOKLYN HIGH SCHOOL FOR LAW AND TECHNOLOGY,40.688399,-73.920603,1396 BROADWAY,11221,Williamsburg - Bushwick,K,Brooklyn,76
76K519,K519,COBBLE HILL SCHOOL OF AMERICAN STUDIES,40.684869,-73.990884,347 BALTIC STREET,11201,Downtown - Heights - Park Slope,K,Brooklyn,76
76K558,K558,WILLIAMSBURG HIGH SCHOOL FOR ARCHITECTURE AND DESI,40.715561,-73.954815,257 N 6 STREET,11211,Greenpoint,K,Brooklyn,76
76K559,K559,LIFE ACADEMY HIGH SCHOOL FOR FILM AND MUSIC,40.593028,-73.986313,2630 BENSON AVENUE,11214,Bensonhurst - Bay Ridge,K,Brooklyn,76
76K561,K561,WILLIAMSBURG PREPARATORY SCHOOL,40.715561,-73.954815,257 N 6 STREET,11211,Greenpoint,K,Brooklyn,76
76K605,K605,GEORGE WESTINGHOUSE CAREER AND TECHNICAL EDUCATION,40.695444,-73.986105,105 TECH PLACE,11201,Downtown - Heights - Park Slope,K,Brooklyn,76
76K620,K620,WILLIAM E. GRADY CAREER AND TECHNICAL EDUCATION HI,40.583263,-73.963764,25 BRIGHTON 4 ROAD,11235,Coney Island - Sheepshead Bay ,K,Brooklyn,76
76K656,K656,BROOKLYN HIGH SCHOOL OF THE ARTS,40.683951,-73.980266,345 DEAN STREET,11217,Downtown - Heights - Park Slope,K,Brooklyn,76
76K669,K669,RESEARCH AND SERVICE HIGH SCHOOL,40.678478,-73.931604,1700 FULTON STREET,11213,Bedford Stuyvesant - Crown Heights,K,Brooklyn,76
76K688,K688,THE BROOKLYN ACADEMY OF GLOBAL FINANCE,40.691467,-73.932254,125 STUYVESANT AVENUE,11221,Williamsburg - Bushwick,K,Brooklyn,76
76K728,K728,LIBERATION DIPLOMA PLUS,40.576976,-73.985413,2865 WEST 19 STREET,11224,Coney Island - Sheepshead Bay ,K,Brooklyn,76
76R047,R047,CSI HIGH SCHOOL FOR INTERNATIONAL STUDIES,40.581958,-74.159343,100 ESSEX DRIVE,10314,Willowbrook,R,Staten Island,76
76R064,R064,GAYNOR MCCOWN EXPEDITIONARY LEARNING SCHOOL,40.581958,-74.159343,100 ESSEX DRIVE,10314,Willowbrook,R,Staten Island,76
76R440,R440,NEW DORP HIGH SCHOOL,40.570909,-74.105878,465 NEW DORP LANE,10306,South Beach - Tottenville ,R,Staten Island,76
76R445,R445,PORT RICHMOND HIGH SCHOOL,40.635562,-74.141924,85 ST JOSEPHS AVENUE,10302,Port Richmond,R,Staten Island,76
76R450,R450,CURTIS HIGH SCHOOL,40.645436,-74.082149,105 HAMILTON AVENUE,10301,Stapleton - St. George,R,Staten Island,76
76R455,R455,TOTTENVILLE HIGH SCHOOL,40.528152,-74.193431,100 LUTEN AVENUE,10312,South Beach - Tottenville ,R,Staten Island,76
76R460,R460,SUSAN E. WAGNER HIGH SCHOOL,40.588985,-74.130819,1200 MANOR ROAD,10314,Willowbrook,R,Staten Island,76
76R470,R470,CONCORD HIGH SCHOOL,40.61062,-74.087072,109 RHINE AVENUE,10304,Stapleton - St. George,R,Staten Island,76
76R600,R600,RALPH R. MCKEE CAREER AND TECHNICAL EDUCATION HIGH,40.64282,-74.079263,101 BELMONT PLACE,10301,Stapleton - St. George,R,Staten Island,76
76R600,R600,RALPH R. MCKEE CAREER AND TECHNICAL EDUCATION HIGH,40.64282,-74.079263,106 BELMONT PLACE,10301,Stapleton - St. George,R,Staten Island,76
76R600,R600,RALPH R. MCKEE CAREER AND TECHNICAL EDUCATION HIGH,40.64282,-74.079263,107 BELMONT PLACE,10301,Stapleton - St. George,R,Staten Island,76
76R600,R600,RALPH R. MCKEE CAREER AND TECHNICAL EDUCATION HIGH,40.64282,-74.079263,108 BELMONT PLACE,10301,Stapleton - St. George,R,Staten Island,76
76R600,R600,RALPH R. MCKEE CAREER AND TECHNICAL EDUCATION HIGH,40.64282,-74.079263,109 BELMONT PLACE,10301,Stapleton - St. George,R,Staten Island,76
76R600,R600,RALPH R. MCKEE CAREER AND TECHNICAL EDUCATION HIGH,40.64282,-74.079263,110 BELMONT PLACE,10301,Stapleton - St. George,R,Staten Island,76
76R600,R600,RALPH R. MCKEE CAREER AND TECHNICAL EDUCATION HIGH,40.64282,-74.079263,111 BELMONT PLACE,10301,Stapleton - St. George,R,Staten Island,76
76R600,R600,RALPH R. MCKEE CAREER AND TECHNICAL EDUCATION HIGH,40.64282,-74.079263,112 BELMONT PLACE,10301,Stapleton - St. George,R,Staten Island,76
76R600,R600,RALPH R. MCKEE CAREER AND TECHNICAL EDUCATION HIGH,40.64282,-74.079263,113 BELMONT PLACE,10301,Stapleton - St. George,R,Staten Island,76
76R600,R600,RALPH R. MCKEE CAREER AND TECHNICAL EDUCATION HIGH,40.64282,-74.079263,114 BELMONT PLACE,10301,Stapleton - St. George,R,Staten Island,76
76R600,R600,RALPH R. MCKEE CAREER AND TECHNICAL EDUCATION HIGH,40.64282,-74.079263,115 BELMONT PLACE,10301,Stapleton - St. George,R,Staten Island,76
76R600,R600,RALPH R. MCKEE CAREER AND TECHNICAL EDUCATION HIGH,40.64282,-74.079263,116 BELMONT PLACE,10301,Stapleton - St. George,R,Staten Island,76
76R600,R600,RALPH R. MCKEE CAREER AND TECHNICAL EDUCATION HIGH,40.64282,-74.079263,117 BELMONT PLACE,10301,Stapleton - St. George,R,Staten Island,76
76R600,R600,RALPH R. MCKEE CAREER AND TECHNICAL EDUCATION HIGH,40.64282,-74.079263,118 BELMONT PLACE,10301,Stapleton - St. George,R,Staten Island,76
76R605,R605,STATEN ISLAND TECHNICAL HIGH SCHOOL,40.568299,-74.117086,485 CLAWSON STREET,10306,South Beach - Tottenville ,R,Staten Island,76
77Q240,Q240,VERITAS ACADEMY,40.764892,-73.826811,35-01 UNION STREET,11354,Flushing - Clearview,Q,Queens,77
77Q241,Q241,QUEENS HIGH SCHOOL FOR LANGUAGE STUDIES,40.764892,-73.826811,35-01 UNION STREET,11354,Flushing - Clearview,Q,Queens,77
77Q243,Q243,INSTITUTE FOR HEALTH PROFESSIONS AT CAMBRIA HEIGHT,40.698786,-73.74633,207- 01 116 AVENUE,11411,Southeast Queens,Q,Queens,77
77Q248,Q248,QUEENS PREPARATORY ACADEMY,40.66903,-73.757744,143-10 SPRINGFIELD BOULEVARD,11413,Southeast Queens,Q,Queens,77
77Q258,Q258,ENERGY TECH HIGH SCHOOL,40.756471,-73.932628,36-41 28 STREET,11106,Long Island City - Astoria,Q,Queens,77
77Q260,Q260,FREDERICK DOUGLASS ACADEMY VI HIGH SCHOOL,40.601537,-73.763995,8-21 BAY 25 STREET,11691,Rockaway,Q,Queens,77
77Q261,Q261,VOYAGES PREP - SOUTH QUEENS,40.673949,-73.782684,156-10 BAISLEY BOULEVARD,11434,Jamaica,Q,Queens,77
77Q263,Q263,FLUSHING INTERNATIONAL HIGH SCHOOL,40.759963,-73.818399,144-80 BARCLAY AVENUE,11355,Flushing - Clearview,Q,Queens,77
77Q264,Q264,ACADEMY OF FINANCE AND ENTERPRISE,40.744175,-73.937004,30-20 THOMSON AVENUE,11101,Long Island City - Astoria,Q,Queens,77
77Q265,Q265,EXCELSIOR PREPARATORY HIGH SCHOOL,40.66903,-73.757744,143-10 SPRINGFIELD BOULEVARD,11413,Southeast Queens,Q,Queens,77
77Q267,Q267,HIGH SCHOOL OF APPLIED COMMUNICATION,40.744175,-73.937004,30-20 THOMSON AVENUE,11101,Long Island City - Astoria,Q,Queens,77
77Q272,Q272,GEORGE WASHINGTON CARVER HIGH SCHOOL FOR THE SCIEN,40.66903,-73.757744,143-10 SPRINGFIELD BOULEVARD,11413,Southeast Queens,Q,Queens,77
77Q293,Q293,CIVIC LEADERSHIP ACADEMY,40.743228,-73.871505,45-10 94 STREET,11373,West Queens,Q,Queens,77
77Q301,Q301,ACADEMY FOR CAREERS IN TELEVISION AND FILM,40.742964,-73.959183,1-50 51 AVENUE,11101,Long Island City - Astoria,Q,Queens,77
77Q302,Q302,QUEENS HIGH SCHOOL FOR INFORMATION  RESEARCH  AND,40.601537,-73.763995,8-21 BAY 25 STREET,11691,Rockaway,Q,Queens,77
77Q308,Q308,ROBERT H. GODDARD HIGH SCHOOL OF COMMUNICATION ART,40.670905,-73.845992,138-30 LAFAYETTE STREET,11417,Southwest Queens,Q,Queens,77
77Q313,Q313,BENJAMIN FRANKLIN HIGH SCHOOL FOR FINANCE & INFORM,40.698786,-73.74633,207- 01 116 AVENUE,11411,Southeast Queens,Q,Queens,77
77Q314,Q314,EPIC HIGH SCHOOL - SOUTH,40.675021,-73.81673,121-10 ROCKAWAY BOULEVARD,11420,Southwest Queens,Q,Queens,77
77Q315,Q315,BUSINESS TECHNOLOGY EARLY COLLEGE HIGH SCHOOL,40.733888,-73.739726,230-17 HILLSIDE AVENUE,11427,Southeast Queens,Q,Queens,77
77Q324,Q324,ROCKAWAY PARK HIGH SCHOOL FOR ENVIRONMENTAL SUSTAI,40.586012,-73.825317,100-00 BEACH CHANNEL DRIVE,11694,Rockaway,Q,Queens,77
77Q325,Q325,HILLSIDE ARTS & LETTERS ACADEMY,40.714551,-73.798658,167-01 GOTHIC DRIVE,11432,Jamaica,Q,Queens,77
77Q326,Q326,CAMBRIA HEIGHTS ACADEMY,40.711857,-73.771196,188-04 91 AVENUE,11432,Jamaica,Q,Queens,77
77Q328,Q328,HIGH SCHOOL FOR COMMUNITY LEADERSHIP,40.714551,-73.798658,167-01 GOTHIC DRIVE,11432,Jamaica,Q,Queens,77
77Q334,Q334,EPIC HIGH SCHOOL - NORTH,40.693013,-73.829409,94-25 117 STREET,11418,Southwest Queens,Q,Queens,77
77Q338,Q338,QUEENS SATELLITE HIGH SCHOOL FOR OPPORTUNITY,40.708204,-73.799532,162-02 HILLSIDE AVENUE,11432,Jamaica,Q,Queens,77
77Q350,Q350,JAMAICA GATEWAY TO THE SCIENCES,40.714551,-73.798658,167-01 GOTHIC DRIVE,11432,Jamaica,Q,Queens,77
77Q351,Q351,ROCKAWAY COLLEGIATE HIGH SCHOOL,40.586012,-73.825317,100-00 BEACH CHANNEL DRIVE,11694,Rockaway,Q,Queens,77
77Q400,Q400,AUGUST MARTIN HIGH SCHOOL,40.673949,-73.782684,156-10 BAISLEY BOULEVARD,11434,Jamaica,Q,Queens,77
77Q415,Q415,BENJAMIN N. CARDOZO HIGH SCHOOL,40.752343,-73.757271,57-00 223 STREET,11364,Bayside - Little Neck,Q,Queens,77
77Q425,Q425,JOHN BOWNE HIGH SCHOOL,40.737448,-73.823841,63-25 MAIN STREET,11367,Fresh Meadows,Q,Queens,77
77Q430,Q430,FRANCIS LEWIS HIGH SCHOOL,40.740875,-73.795049,58-20 UTOPIA PARKWAY,11365,Fresh Meadows,Q,Queens,77
77Q435,Q435,MARTIN VAN BUREN HIGH SCHOOL,40.733888,-73.739726,230-17 HILLSIDE AVENUE,11427,Southeast Queens,Q,Queens,77
77Q440,Q440,FOREST HILLS HIGH SCHOOL,40.730017,-73.843972,67-01 110 STREET,11375,Ridgewood - Forest Hills,Q,Queens,77
77Q445,Q445,WILLIAM CULLEN BRYANT HIGH SCHOOL,40.757072,-73.911165,48-10 31 AVENUE,11103,Long Island City - Astoria,Q,Queens,77
77Q450,Q450,LONG ISLAND CITY HIGH SCHOOL,40.765881,-73.933907,14-30 BROADWAY,11106,Long Island City - Astoria,Q,Queens,77
77Q455,Q455,NEWTOWN HIGH SCHOOL,40.740824,-73.874129,48-01 90 STREET,11373,West Queens,Q,Queens,77
77Q460,Q460,FLUSHING HIGH SCHOOL,40.764892,-73.826811,35-01 UNION STREET,11354,Flushing - Clearview,Q,Queens,77
77Q475,Q475,RICHMOND HILL HIGH SCHOOL,40.695171,-73.833815,89-30 114 STREET,11418,Southwest Queens,Q,Queens,77
77Q480,Q480,JOHN ADAMS HIGH SCHOOL,40.680065,-73.838616,101-01 ROCKAWAY BOULEVARD,11417,Southwest Queens,Q,Queens,77
77Q485,Q485,GROVER CLEVELAND HIGH SCHOOL,40.711881,-73.909202,21-27 HIMROD STREET,11385,Ridgewood - Forest Hills,Q,Queens,77
77Q492,Q492,MATHEMATICS  SCIENCE RESEARCH AND TECHNOLOGY MAGNE,40.69863168,-73.74520533,207-01 116 AVENUE,11411,Southeast Queens,Q,Queens,77
77Q492,Q492,MATHEMATICS  SCIENCE RESEARCH AND TECHNOLOGY MAGNE,40.695875,-73.915217,231 PALMETTO STREET,11221,Williamsburg - Bushwick,Q,Queens,77
77Q492,Q492,MATHEMATICS  SCIENCE RESEARCH AND TECHNOLOGY MAGNE,40.698786,-73.74633,207-01 116 AVENUE,11411,Southeast Queens,Q,Queens,77
77Q495,Q495,BAYSIDE HIGH SCHOOL,40.771398,-73.781041,32-24 CORPORAL KENNEDY STREET,11361,Bayside - Little Neck,Q,Queens,77
77Q501,Q501,FRANK SINATRA SCHOOL OF THE ARTS HIGH SCHOOL,40.756099,-73.925182,35-12 35 AVENUE,11106,Long Island City - Astoria,Q,Queens,77
77Q502,Q502,INFORMATION TECHNOLOGY HIGH SCHOOL,40.748502,-73.946488,21-16 44 ROAD,11101,Long Island City - Astoria,Q,Queens,77
77Q505,Q505,HILLCREST HIGH SCHOOL,40.709461,-73.803001,160-05 HIGHLAND AVENUE,11432,Jamaica,Q,Queens,77
77Q520,Q520,MIDDLE COLLEGE HIGH SCHOOL AT LAGUARDIA COMMUNITY,40.743253,-73.933316,45-35 VAN DAM STREET,11101,Long Island City - Astoria,Q,Queens,77
77Q525,Q525,TOWNSEND HARRIS HIGH SCHOOL,40.737038,-73.821532,149-11 MELBOURNE AVENUE,11367,Fresh Meadows,Q,Queens,77
77Q530,Q530,INTERNATIONAL HIGH SCHOOL AT LAGUARDIA COMMUNITY C,40.743253,-73.933316,45-35 VAN DAM STREET,11101,Long Island City - Astoria,Q,Queens,77
77Q550,Q550,HIGH SCHOOL FOR ARTS AND BUSINESS,40.737673,-73.853412,105-25 HORACE HARDING EXPRESSWAY N,11368,West Queens,Q,Queens,77
77Q555,Q555,NEWCOMERS HIGH SCHOOL,40.751838,-73.936592,28-01 41 AVENUE,11101,Long Island City - Astoria,Q,Queens,77
77Q566,Q566,QUEENS HIGH SCHOOL OF TEACHING  LIBERAL ARTS AND T,40.744197,-73.728834,74-20 COMMONWEALTH BOULEVARD,11426,Southeast Queens,Q,Queens,77
77Q575,Q575,ACADEMY OF AMERICAN STUDIES,40.751144,-73.937564,28-04 41 AVENUE,11101,Long Island City - Astoria,Q,Queens,77
77Q585,Q585,MASPETH HIGH SCHOOL,40.729104,-73.887909,54-40 74 STREET,11378,West Queens,Q,Queens,77
77Q600,Q600,QUEENS TECHNICAL HIGH SCHOOL,40.741658,-73.927995,37-02 47 AVENUE,11101,Long Island City - Astoria,Q,Queens,77
77Q610,Q610,AVIATION CAREER & TECHNICAL EDUCATION HIGH SCHOOL,40.743309,-73.929577,45-30 36 STREET,11101,Long Island City - Astoria,Q,Queens,77
77Q620,Q620,THOMAS A. EDISON CAREER AND TECHNICAL EDUCATION HI,40.716071,-73.799692,165-65 84 AVENUE,11432,Jamaica,Q,Queens,77
77Q650,Q650,HIGH SCHOOL FOR CONSTRUCTION TRADES  ENGINEERING A,40.689177,-73.841475,94-06 104 STREET,11416,Southwest Queens,Q,Queens,77
77Q670,Q670,ROBERT F. KENNEDY COMMUNITY HIGH SCHOOL,40.72528,-73.811408,75-40 PARSONS BOULEVARD,11366,Fresh Meadows,Q,Queens,77
77Q686,Q686,QUEENS METROPOLITAN HIGH SCHOOL,40.708431,-73.855543,91-30 METROPOLITAN AVENUE,11375,Jamaica,Q,Queens,77
77Q687,Q687,QUEENS HIGH SCHOOL FOR THE SCIENCES AT YORK COLLEG,40.700884,-73.798364,94-50 159 STREET,11433,Jamaica,Q,Queens,77
77Q690,Q690,HIGH SCHOOL FOR LAW ENFORCEMENT AND PUBLIC SAFETY,40.685838,-73.783438,116-25 GUY R BREWER BOULEVARD,11434,Jamaica,Q,Queens,77
77Q744,Q744,VOYAGES PREPARATORY,40.743228,-73.871505,45-10 94 STREET,11373,West Queens,Q,Queens,77
02M422,M422,QUEST TO LEARN,40.743407,-74.00254,351 WEST 18 STREET,10011,Chelsea - Clinton,M,Manhattan,2
04M372,M372,ESPERANZA PREPARATORY ACADEMY,40.792556,-73.942285,240 EAST 109 STREET,10029,East Harlem,M,Manhattan,4
06M293,M293,CITY COLLEGE ACADEMY OF THE ARTS,40.860951,-73.930082,4600 BROADWAY,10040,Washington Heights - Inwood,M,Manhattan,6
06M346,M346,COMMUNITY HEALTH ACADEMY OF THE HEIGHTS,40.833695,-73.942074,504 WEST 158\ STREET,10032,Washington Heights - Inwood,M,Manhattan,6
07X223,X223,THE LABORATORY SCHOOL OF FINANCE AND TECHNOLOGY: X,40.813612,-73.920851,360 EAST 145 STREET,10454,Hunts Point - Mott Haven,X,Bronx,7
08X367,X367,ARCHIMEDES ACADEMY FOR MATH  SCIENCE AND TECHNOLOG,40.815043,-73.85607,456 WHITE PLAINS ROAD,10473,Pelham - Throgs Neck,X,Bronx,8
09X327,X327,COMPREHENSIVE MODEL SCHOOL PROJECT M.S. 327,40.842503,-73.916084,1501 JEROME AVENUE,10457,Crotona - Tremont,X,Bronx,9
09X568,X568,YOUNG WOMEN'S LEADERSHIP SCHOOL OF THE BRONX,40.848552,-73.909022,1865 MORRIS AVENUE,10453,Crotona - Tremont,X,Bronx,9
10X225,X225,THEATRE ARTS PRODUCTION COMPANY SCHOOL,40.854257,-73.897404,2225 WEBSTER AVENUE,10457,Crotona - Tremont,X,Bronx,10
10X368,X368,IN-TECH ACADEMY (M.S. / HIGH SCHOOL 368),40.877935,-73.913694,2975 TIBBETT AVENUE,10463,Kingsbridge - Riverdale,X,Bronx,10
12X242,X242,MOTT HALL V,40.832508,-73.878191,1551 EAST 172 STREET,10472,Pelham - Throgs Neck,X,Bronx,12
19K422,K422,SPRING CREEK COMMUNITY SCHOOL,40.657266,-73.874064,1065 ELTON STREET,11239,Canarsie - Flatlands,K,Brooklyn,19
25Q285,Q285,WORLD JOURNALISM PREPARATORY: A COLLEGE BOARD SCHO,40.764884,-73.789365,34-65 192 STREET,11358,Flushing - Clearview,Q,Queens,25
27Q323,Q323,SCHOLARS' ACADEMY,40.584543,-73.825162,320 BEACH 104 STREET,11694,Rockaway,Q,Queens,27
28Q167,Q167,METROPOLITAN EXPEDITIONARY LEARNING SCHOOL,40.708431,-73.855543,91-30 METROPOLITAN AVENUE,11375,Jamaica,Q,Queens,28
29Q283,Q283,PREPARATORY ACADEMY FOR WRITERS: A COLLEGE BOARD S,40.66903,-73.757744,143-10 SPRINGFIELD BOULEVARD,11413,Southeast Queens,Q,Queens,29
30Q286,Q286,YOUNG WOMEN'S LEADERSHIP SCHOOL  ASTORIA,40.770769,-73.92383,23-15 NEWTOWN AVENUE,11102,Long Island City - Astoria,Q,Queens,30
31R028,R028,THE EAGLE ACADEMY FOR YOUNG MEN OF STATEN ISLAND,40.620443,-74.080695,101 WARREN STREET,10304,Stapleton - St. George,R,Staten Island,31
31R085,R085,THE YOUNG WOMENS LEADERSHIP SCHOOL OF STATEN ISLA,40.708409,-73.804166,150-91 87 ROAD,11432,Jamaica,R,Staten Island,31
71M148,M148,EAGLE ACADEMY FOR YOUNG MEN OF HARLEM,40.817228,-73.947151,6 EDGECOMBE AVENUE,10030,Central Harlem - Morningside Heights,M,Manhattan,71
71M408,M408,PROFESSIONAL PERFORMING ARTS HIGH SCHOOL,40.761327,-73.988665,328 WEST 48 STREET,10036,Chelsea - Clinton,M,Manhattan,71
71M450,M450,EAST SIDE COMMUNITY SCHOOL,40.729152,-73.982472,420 EAST 12 STREET,10009,Union Square - Lower East Side,M,Manhattan,71
71M499,M499,FREDERICK DOUGLASS ACADEMY,40.823988,-73.935746,2581 ADAM CLAYTON POWELL JR. BOULEVARD,10039,Central Harlem - Morningside Heights,M,Manhattan,71
71M610,M610,YOUNG WOMEN'S LEADERSHIP SCHOOL,40.792932,-73.947171,105 EAST 106 STREET,10029,East Harlem,M,Manhattan,71
77Q896,Q896,YOUNG WOMEN'S LEADERSHIP SCHOOL  QUEENS,40.792932,-73.947171,105 EAST 106 STREET,10029,East Harlem,Q,Queens,77
71M670,M670,THURGOOD MARSHALL ACADEMY FOR LEARNING AND SOCIAL,40.815237,-73.944299,200-214 WEST 135 STREET,10030,Central Harlem - Morningside Heights,M,Manhattan,71
72X221,X221,SOUTH BRONX PREPARATORY: A COLLEGE BOARD SCHOOL,40.813612,-73.920851,360 EAST 145 STREET,10454,Hunts Point - Mott Haven,X,Bronx,72
72X231,X231,EAGLE ACADEMY FOR YOUNG MEN,40.845366,-73.897479,4143 THIRD AVENUE,10457,Crotona - Tremont,X,Bronx,72
73K644,K644,EAGLE ACADEMY FOR YOUNG MEN II,40.845366,-73.897479,4143 THIRD AVENUE,10457,Crotona - Tremont,K,Brooklyn,73
77Q327,Q327,EAGLE ACADEMY FOR YOUNG MEN III,40.845366,-73.897479,4143 THIRD AVENUE,10457,Crotona - Tremont,Q,Queens,77
72X241,X241,URBAN ASSEMBLY SCHOOL FOR APPLIED MATH AND SCIENCE,40.839508,-73.901774,1595 BATHGATE AVENUE,10457,Crotona - Tremont,X,Bronx,72
72X243,X243,WEST BRONX ACADEMY FOR THE FUTURE,40.859466,-73.888625,500 EAST FORDHAM ROAD,10458,Fordham - Bronx Park,X,Bronx,72
72X267,X267,BRONX LATIN,40.826933,-73.900593,800 HOME STREET,10456,High Bridge - Morrisania,X,Bronx,72
72X269,X269,BRONX STUDIO SCHOOL FOR WRITERS AND ARTISTS,40.820388,-73.892961,928 SIMPSON STREET,10459,Hunts Point - Mott Haven,X,Bronx,72
72X271,X271,EAST BRONX ACADEMY FOR THE FUTURE,40.836821,-73.887688,1716 SOUTHERN BOULEVARD,10460,Crotona - Tremont,X,Bronx,72
72X342,X342,INTERNATIONAL SCHOOL FOR LIBERAL ARTS,40.869061,-73.897066,2780 RESERVOIR AVENUE,10468,Fordham - Bronx Park,X,Bronx,72
72X376,X376,ANTONIA PANTOJA PREPARATORY ACADEMY: A COLLEGE BOA,40.821218,-73.85593,1980 LAFAYETTE AVENUE,10473,Pelham - Throgs Neck,X,Bronx,72
72X500,X500,HOSTOS-LINCOLN ACADEMY OF SCIENCE,40.814857,-73.912038,600 SAINT ANN'S AVENUE,10455,Hunts Point - Mott Haven,X,Bronx,72
72X505,X505,BRONX SCHOOL FOR LAW  GOVERNMENT AND JUSTICE,40.827461,-73.919024,244 EAST 163 STREET,10451,High Bridge - Morrisania,X,Bronx,72
72X551,X551,THE URBAN ASSEMBLY BRONX ACADEMY OF LETTERS,40.813681,-73.925995,339 MORRIS AVENUE,10451,High Bridge - Morrisania,X,Bronx,72
73K404,K404,ACADEMY FOR YOUNG WRITERS,40.657266,-73.874064,1065 ELTON STREET,11239,Canarsie - Flatlands,K,Brooklyn,73
73K409,K409,EAST NEW YORK FAMILY ACADEMY,40.673766,-73.895976,145 PENNSYLVANIA AVENUE,11207,East New York,K,Brooklyn,73
73K448,K448,BROOKLYN COLLABORATIVE STUDIES,40.679462,-74.002022,610 HENRY STREET,11231,Downtown - Heights - Park Slope,K,Brooklyn,73
73K543,K543,SCIENCE  TECHNOLOGY AND RESEARCH EARLY COLLEGE HIG,40.649602,-73.957173,911 FLATBUSH AVENUE,11226,East Flatbush - Flatbush,K,Brooklyn,73
73K586,K586,LYONS COMMUNITY SCHOOL,40.709765,-73.944463,223 GRAHAM AVENUE,11206,Williamsburg - Bushwick,K,Brooklyn,73
73K590,K590,MEDGAR EVERS COLLEGE PREPARATORY SCHOOL,40.66679,-73.951823,1186 CARROLL STREET,11225,East Flatbush - Flatbush,K,Brooklyn,73
73K614,K614,YOUNG WOMEN'S LEADERSHIP SCHOOL OF BROOKLYN,40.705005,-73.93879,325 BUSHWICK AVENUE,11206,Williamsburg - Bushwick,K,Brooklyn,73
76K464,K464,PARK SLOPE COLLEGIATE,40.669255,-73.97858,237 7 AVENUE,11215,Downtown - Heights - Park Slope,K,Brooklyn,76
76K468,K468,KINGSBOROUGH EARLY COLLEGE SCHOOL,40.593028,-73.986313,2630 BENSON AVENUE,11214,Bensonhurst - Bay Ridge,K,Brooklyn,76
76K497,K497,THE BOERUM HILL SCHOOL FOR INTERNATIONAL STUDIES,40.685006,-73.993293,284 BALTIC STREET,11201,Downtown - Heights - Park Slope,K,Brooklyn,76
76K527,K527,URBAN ASSEMBLY INSTITUTE OF MATH AND SCIENCE FOR Y,40.694629,-73.988323,283 ADAMS STREET,11201,Downtown - Heights - Park Slope,K,Brooklyn,76
76K609,K609,URBAN ASSEMBLY SCHOOL FOR LEADERSHIP AND EMPOWERME,40.63497525,-73.98180529,4200 16 AVENUE,11219,Borough Park,K,Brooklyn,76
77Q259,Q259,PATHWAYS COLLEGE PREPARATORY SCHOOL: A COLLEGE BOA,40.705989,-73.752885,109-89 204 STREET,11412,Jamaica,Q,Queens,77
77Q262,Q262,CHANNEL VIEW SCHOOL FOR RESEARCH,40.586012,-73.825317,100-00 BEACH CHANNEL DRIVE,11694,Rockaway,Q,Queens,77
77Q281,Q281,EAST-WEST SCHOOL OF INTERNATIONAL STUDIES,40.74943,-73.821402,46-21 COLDEN STREET,11355,Flushing - Clearview,Q,Queens,77
77Q284,Q284,YORK EARLY COLLEGE ACADEMY,40.69691,-73.786403,108-35 167 STREET,11433,Jamaica,Q,Queens,77
77Q309,Q309,ACADEMY OF MEDICAL TECHNOLOGY: A COLLEGE BOARD SCH,40.601537,-73.763995,8-21 BAY 25 STREET,11691,Rockaway,Q,Queens,77
77Q310,Q310,QUEENS COLLEGIATE: A COLLEGE BOARD SCHOOL,40.714551,-73.798658,167-01 GOTHIC DRIVE,11432,Jamaica,Q,Queens,77
